<?xml version="1.0" encoding="UTF-8"?>
<gpx version="1.1" creator="Rutas Jard Enduro" xmlns="http://www.topografix.com/GPX/1/1">
  <trk>
    <name>Domingo_58km</name>
    <trkseg>
      <trkpt lat="43.20550941512303" lon="-4.046846838775581"></trkpt>
      <trkpt lat="43.20552941876932" lon="-4.046414910045578"></trkpt>
      <trkpt lat="43.20569852723091" lon="-4.046300715681643"></trkpt>
      <trkpt lat="43.20596795284416" lon="-4.04611576355463"></trkpt>
      <trkpt lat="43.20637838927729" lon="-4.045812557421439"></trkpt>
      <trkpt lat="43.20683296900756" lon="-4.045603246810935"></trkpt>
      <trkpt lat="43.20736591047816" lon="-4.045310914256991"></trkpt>
      <trkpt lat="43.20802256483272" lon="-4.045127601444872"></trkpt>
      <trkpt lat="43.20856733132915" lon="-4.044635361235438"></trkpt>
      <trkpt lat="43.20882325577433" lon="-4.043922163447871"></trkpt>
      <trkpt lat="43.20884217694476" lon="-4.043892795647579"></trkpt>
      <trkpt lat="43.20926457723198" lon="-4.043299899599272"></trkpt>
      <trkpt lat="43.20927941312799" lon="-4.04328402958416"></trkpt>
      <trkpt lat="43.20965961210698" lon="-4.042630537456628"></trkpt>
      <trkpt lat="43.20993142854785" lon="-4.04176710689519"></trkpt>
      <trkpt lat="43.20997518551776" lon="-4.040790611590843"></trkpt>
      <trkpt lat="43.20980422445351" lon="-4.039501524490889"></trkpt>
      <trkpt lat="43.20963084236559" lon="-4.038411403625862"></trkpt>
      <trkpt lat="43.20973424345543" lon="-4.037760921847459"></trkpt>
      <trkpt lat="43.21012664068084" lon="-4.036912721093087"></trkpt>
      <trkpt lat="43.21059186082545" lon="-4.035589164731777"></trkpt>
      <trkpt lat="43.21101888416764" lon="-4.034724432851355"></trkpt>
      <trkpt lat="43.21160959217815" lon="-4.034291090883187"></trkpt>
      <trkpt lat="43.21226449085466" lon="-4.034054523684766"></trkpt>
      <trkpt lat="43.2123751882527" lon="-4.034025684358359"></trkpt>
      <trkpt lat="43.2129324779678" lon="-4.033416128694904"></trkpt>
      <trkpt lat="43.21339576993145" lon="-4.032811229978858"></trkpt>
      <trkpt lat="43.21414903175319" lon="-4.032865341636112"></trkpt>
      <trkpt lat="43.21470868999351" lon="-4.033108363520409"></trkpt>
      <trkpt lat="43.21513706315707" lon="-4.032775777958248"></trkpt>
      <trkpt lat="43.21566595228308" lon="-4.032783280498158"></trkpt>
      <trkpt lat="43.21606060636952" lon="-4.032247246857134"></trkpt>
      <trkpt lat="43.21677894690799" lon="-4.033290289270374"></trkpt>
      <trkpt lat="43.21735963324369" lon="-4.034275070974077"></trkpt>
      <trkpt lat="43.21794349407773" lon="-4.035252770796719"></trkpt>
      <trkpt lat="43.21911989379822" lon="-4.03603559762429"></trkpt>
      <trkpt lat="43.21985437329675" lon="-4.036422572570117"></trkpt>
      <trkpt lat="43.22061006570826" lon="-4.037084896573329"></trkpt>
      <trkpt lat="43.22144662366097" lon="-4.037582322263258"></trkpt>
      <trkpt lat="43.22203641132185" lon="-4.038377189667375"></trkpt>
      <trkpt lat="43.22206039956414" lon="-4.039276199373953"></trkpt>
      <trkpt lat="43.22260322365921" lon="-4.040045427301788"></trkpt>
      <trkpt lat="43.22346278818077" lon="-4.041103896651856"></trkpt>
      <trkpt lat="43.22378154978255" lon="-4.041744651988026"></trkpt>
      <trkpt lat="43.22395465637707" lon="-4.042522967398748"></trkpt>
      <trkpt lat="43.22403575970032" lon="-4.043189197345358"></trkpt>
      <trkpt lat="43.22426795235882" lon="-4.043935631031429"></trkpt>
      <trkpt lat="43.22445968243701" lon="-4.044635422080437"></trkpt>
      <trkpt lat="43.22469975721376" lon="-4.045445912280501"></trkpt>
      <trkpt lat="43.22486866362514" lon="-4.045898143085375"></trkpt>
      <trkpt lat="43.22513950848612" lon="-4.046516273971851"></trkpt>
      <trkpt lat="43.22536044399784" lon="-4.047298685991184"></trkpt>
      <trkpt lat="43.22574872153422" lon="-4.047690996894787"></trkpt>
      <trkpt lat="43.22624627968693" lon="-4.047866479460536"></trkpt>
      <trkpt lat="43.22682744999259" lon="-4.048170486590346"></trkpt>
      <trkpt lat="43.22756992930692" lon="-4.048557377476174"></trkpt>
      <trkpt lat="43.22817608600127" lon="-4.048900356884689"></trkpt>
      <trkpt lat="43.22855277337046" lon="-4.04972956387372"></trkpt>
      <trkpt lat="43.22879592887185" lon="-4.050101379971701"></trkpt>
      <trkpt lat="43.22934556611577" lon="-4.050403162252596"></trkpt>
      <trkpt lat="43.23017062614742" lon="-4.050524780813499"></trkpt>
      <trkpt lat="43.23070695846277" lon="-4.050510164881853"></trkpt>
      <trkpt lat="43.23166035848558" lon="-4.050639279094435"></trkpt>
      <trkpt lat="43.23228203387524" lon="-4.050733194016574"></trkpt>
      <trkpt lat="43.23322228072532" lon="-4.051241350747178"></trkpt>
      <trkpt lat="43.23401513946401" lon="-4.051553941602538"></trkpt>
      <trkpt lat="43.23453020376263" lon="-4.052639141278878"></trkpt>
      <trkpt lat="43.23491233214406" lon="-4.053322247980313"></trkpt>
      <trkpt lat="43.23532934997956" lon="-4.053566653116033"></trkpt>
      <trkpt lat="43.235889320501" lon="-4.05404573397087"></trkpt>
      <trkpt lat="43.23647069578386" lon="-4.054398821145159"></trkpt>
      <trkpt lat="43.23674047334292" lon="-4.054657983947837"></trkpt>
      <trkpt lat="43.23669405728715" lon="-4.055301615668157"></trkpt>
      <trkpt lat="43.23691253020058" lon="-4.055825714010362"></trkpt>
      <trkpt lat="43.23729858894362" lon="-4.05622137434298"></trkpt>
      <trkpt lat="43.2374843960737" lon="-4.056462284868928"></trkpt>
      <trkpt lat="43.23794036568655" lon="-4.056637321069612"></trkpt>
      <trkpt lat="43.23838757914168" lon="-4.056781194774102"></trkpt>
      <trkpt lat="43.2387713034933" lon="-4.057128689763545"></trkpt>
      <trkpt lat="43.23900854271065" lon="-4.057509504083753"></trkpt>
      <trkpt lat="43.23929224473228" lon="-4.057851289193327"></trkpt>
      <trkpt lat="43.23987159857725" lon="-4.057957288164248"></trkpt>
      <trkpt lat="43.24026159268172" lon="-4.057987352457653"></trkpt>
      <trkpt lat="43.24046738079867" lon="-4.057951138717186"></trkpt>
      <trkpt lat="43.24064944868876" lon="-4.058085309281125"></trkpt>
      <trkpt lat="43.24088003369976" lon="-4.057900370833659"></trkpt>
      <trkpt lat="43.24097237326018" lon="-4.057572296657983"></trkpt>
      <trkpt lat="43.24109994882356" lon="-4.057213636919944"></trkpt>
      <trkpt lat="43.24096348592857" lon="-4.056796003705402"></trkpt>
      <trkpt lat="43.24095247585036" lon="-4.056776128771235"></trkpt>
      <trkpt lat="43.2409502915728" lon="-4.056767980939275"></trkpt>
      <trkpt lat="43.24081751617631" lon="-4.056457159675818"></trkpt>
      <trkpt lat="43.24082765146427" lon="-4.056428586232887"></trkpt>
      <trkpt lat="43.24101208455295" lon="-4.056374962119307"></trkpt>
      <trkpt lat="43.24138805120446" lon="-4.056511247948319"></trkpt>
      <trkpt lat="43.24167767270882" lon="-4.056560110032238"></trkpt>
      <trkpt lat="43.2418552667185" lon="-4.056787688162629"></trkpt>
      <trkpt lat="43.24220785653082" lon="-4.057110359426137"></trkpt>
      <trkpt lat="43.24248441761515" lon="-4.056964518637971"></trkpt>
      <trkpt lat="43.24252702222189" lon="-4.056884514993103"></trkpt>
      <trkpt lat="43.24298428921391" lon="-4.057170142313018"></trkpt>
      <trkpt lat="43.24347564179352" lon="-4.057365806224381"></trkpt>
      <trkpt lat="43.2439942904027" lon="-4.057779527423761"></trkpt>
      <trkpt lat="43.24418235986818" lon="-4.058187928848339"></trkpt>
      <trkpt lat="43.24445804858554" lon="-4.05859830196209"></trkpt>
      <trkpt lat="43.24463792439695" lon="-4.05899115028631"></trkpt>
      <trkpt lat="43.2448086435201" lon="-4.05912546197702"></trkpt>
      <trkpt lat="43.24496071472847" lon="-4.059331335544753"></trkpt>
      <trkpt lat="43.24511414891128" lon="-4.059503802933454"></trkpt>
      <trkpt lat="43.24521509412927" lon="-4.05978716138077"></trkpt>
      <trkpt lat="43.2452290397411" lon="-4.060163526366757"></trkpt>
      <trkpt lat="43.24526528803464" lon="-4.060506121880994"></trkpt>
      <trkpt lat="43.24534627062084" lon="-4.060875766466405"></trkpt>
      <trkpt lat="43.24548779986544" lon="-4.061390098197201"></trkpt>
      <trkpt lat="43.24551000866803" lon="-4.061659338842309"></trkpt>
      <trkpt lat="43.24562527825185" lon="-4.061986713676331"></trkpt>
      <trkpt lat="43.2452306525271" lon="-4.062072844033398"></trkpt>
      <trkpt lat="43.24492024864044" lon="-4.061951971629322"></trkpt>
      <trkpt lat="43.24476626186297" lon="-4.061917744287791"></trkpt>
      <trkpt lat="43.24444197685762" lon="-4.061863648415399"></trkpt>
      <trkpt lat="43.2439858897683" lon="-4.061943689725929"></trkpt>
      <trkpt lat="43.24381547158342" lon="-4.062112947380281"></trkpt>
      <trkpt lat="43.24374917296617" lon="-4.062288195776635"></trkpt>
      <trkpt lat="43.24356471680623" lon="-4.062385882502713"></trkpt>
      <trkpt lat="43.24335763702049" lon="-4.062345006712372"></trkpt>
      <trkpt lat="43.24319017132263" lon="-4.062261592569748"></trkpt>
      <trkpt lat="43.24299900106058" lon="-4.062215413248412"></trkpt>
      <trkpt lat="43.24259387857693" lon="-4.062211252346009"></trkpt>
      <trkpt lat="43.24244221795772" lon="-4.062203655397608"></trkpt>
      <trkpt lat="43.24200576303434" lon="-4.062323835895192"></trkpt>
      <trkpt lat="43.24183324299852" lon="-4.062383910334665"></trkpt>
      <trkpt lat="43.24141339970418" lon="-4.062579794024313"></trkpt>
      <trkpt lat="43.24126147754667" lon="-4.062680092568084"></trkpt>
      <trkpt lat="43.2410303921478" lon="-4.06278110842935"></trkpt>
      <trkpt lat="43.24093698870063" lon="-4.062677532940205"></trkpt>
      <trkpt lat="43.24081549204941" lon="-4.062693807886565"></trkpt>
      <trkpt lat="43.24015438687577" lon="-4.063034083437421"></trkpt>
      <trkpt lat="43.23989469546486" lon="-4.063176827224252"></trkpt>
      <trkpt lat="43.23973150522453" lon="-4.063205564460742"></trkpt>
      <trkpt lat="43.23905617900164" lon="-4.063394938651271"></trkpt>
      <trkpt lat="43.23874189355264" lon="-4.063458327310093"></trkpt>
      <trkpt lat="43.23818234340983" lon="-4.063443311970022"></trkpt>
      <trkpt lat="43.23795168094505" lon="-4.063418560675808"></trkpt>
      <trkpt lat="43.23745809471234" lon="-4.063382548459849"></trkpt>
      <trkpt lat="43.23719366908805" lon="-4.063286942053777"></trkpt>
      <trkpt lat="43.23653768391878" lon="-4.06312532028252"></trkpt>
      <trkpt lat="43.23619736186603" lon="-4.062958469382513"></trkpt>
      <trkpt lat="43.23567939753072" lon="-4.062874172907973"></trkpt>
      <trkpt lat="43.23527405171568" lon="-4.062669100441275"></trkpt>
      <trkpt lat="43.23452629713844" lon="-4.062571109159297"></trkpt>
      <trkpt lat="43.23380631511338" lon="-4.062497293807476"></trkpt>
      <trkpt lat="43.23331373512799" lon="-4.062448282388582"></trkpt>
      <trkpt lat="43.232801481929" lon="-4.062407247954721"></trkpt>
      <trkpt lat="43.23243056722875" lon="-4.06239952967054"></trkpt>
      <trkpt lat="43.23195997420454" lon="-4.062568092316521"></trkpt>
      <trkpt lat="43.23171579527282" lon="-4.062781447331925"></trkpt>
      <trkpt lat="43.23127109207061" lon="-4.063300438451975"></trkpt>
      <trkpt lat="43.23065758572275" lon="-4.064165599589806"></trkpt>
      <trkpt lat="43.23014164736861" lon="-4.06510533846807"></trkpt>
      <trkpt lat="43.22987085657574" lon="-4.065587912778932"></trkpt>
      <trkpt lat="43.22933857880125" lon="-4.066218423405691"></trkpt>
      <trkpt lat="43.22892904551617" lon="-4.066664839606506"></trkpt>
      <trkpt lat="43.22825093540768" lon="-4.06721899683621"></trkpt>
      <trkpt lat="43.22774636376055" lon="-4.067532882717448"></trkpt>
      <trkpt lat="43.22714098756472" lon="-4.067603921148565"></trkpt>
      <trkpt lat="43.22654964130646" lon="-4.067481221464772"></trkpt>
      <trkpt lat="43.22583814686869" lon="-4.066948655495787"></trkpt>
      <trkpt lat="43.22525694348757" lon="-4.066715905911421"></trkpt>
      <trkpt lat="43.22467220561582" lon="-4.066583273577345"></trkpt>
      <trkpt lat="43.22457877374048" lon="-4.066575185883291"></trkpt>
      <trkpt lat="43.2244918589293" lon="-4.066521004937231"></trkpt>
      <trkpt lat="43.22438912515517" lon="-4.066480058873402"></trkpt>
      <trkpt lat="43.22425715544587" lon="-4.066430651382213"></trkpt>
      <trkpt lat="43.22412159218355" lon="-4.066520606715196"></trkpt>
      <trkpt lat="43.22402438191205" lon="-4.066739937258363"></trkpt>
      <trkpt lat="43.22398297949722" lon="-4.066981206055535"></trkpt>
      <trkpt lat="43.22396308376461" lon="-4.067209281357509"></trkpt>
      <trkpt lat="43.22398383803944" lon="-4.067404135131415"></trkpt>
      <trkpt lat="43.22398169994879" lon="-4.067612616390641"></trkpt>
      <trkpt lat="43.22395134970908" lon="-4.067827269099639"></trkpt>
      <trkpt lat="43.2239022923015" lon="-4.068293143960697"></trkpt>
      <trkpt lat="43.22382262111205" lon="-4.068965878668807"></trkpt>
      <trkpt lat="43.22377273794769" lon="-4.06937077752584"></trkpt>
      <trkpt lat="43.2236185118471" lon="-4.070052303291543"></trkpt>
      <trkpt lat="43.22366287799458" lon="-4.070600026393047"></trkpt>
      <trkpt lat="43.22382215830618" lon="-4.071147190884342"></trkpt>
      <trkpt lat="43.22404093717474" lon="-4.071698815803495"></trkpt>
      <trkpt lat="43.22368381738494" lon="-4.072669176869664"></trkpt>
      <trkpt lat="43.22352488586078" lon="-4.073067272891622"></trkpt>
      <trkpt lat="43.22358782024571" lon="-4.073369016143527"></trkpt>
      <trkpt lat="43.22382746884276" lon="-4.073538769232482"></trkpt>
      <trkpt lat="43.22410270302828" lon="-4.074049958106462"></trkpt>
      <trkpt lat="43.22444262692618" lon="-4.074745710457695"></trkpt>
      <trkpt lat="43.22475027574794" lon="-4.075306207723245"></trkpt>
      <trkpt lat="43.22526455450142" lon="-4.07563611650238"></trkpt>
      <trkpt lat="43.2257645381067" lon="-4.076248405756409"></trkpt>
      <trkpt lat="43.2260226163464" lon="-4.076936500531607"></trkpt>
      <trkpt lat="43.22635994025516" lon="-4.077572349171548"></trkpt>
      <trkpt lat="43.22680549894918" lon="-4.077993049903709"></trkpt>
      <trkpt lat="43.22727677536944" lon="-4.078308178638435"></trkpt>
      <trkpt lat="43.22768582128347" lon="-4.079044012139336"></trkpt>
      <trkpt lat="43.22788418486871" lon="-4.079711546040432"></trkpt>
      <trkpt lat="43.2283222063728" lon="-4.080093339691816"></trkpt>
      <trkpt lat="43.22877289556065" lon="-4.080202770831126"></trkpt>
      <trkpt lat="43.22927627547828" lon="-4.080393947583765"></trkpt>
      <trkpt lat="43.22900304604403" lon="-4.079785263191116"></trkpt>
      <trkpt lat="43.22889987061463" lon="-4.079281145432648"></trkpt>
      <trkpt lat="43.22923685158918" lon="-4.079157761197489"></trkpt>
      <trkpt lat="43.22967875376394" lon="-4.07942055941021"></trkpt>
      <trkpt lat="43.23022811249537" lon="-4.07992716966297"></trkpt>
      <trkpt lat="43.23063683692114" lon="-4.080206791585326"></trkpt>
      <trkpt lat="43.23091560538695" lon="-4.080383732841383"></trkpt>
      <trkpt lat="43.23089662218696" lon="-4.080021616673571"></trkpt>
      <trkpt lat="43.2306996227333" lon="-4.079642412303278"></trkpt>
      <trkpt lat="43.23051179481426" lon="-4.079326327045989"></trkpt>
      <trkpt lat="43.2302610587842" lon="-4.078913110342745"></trkpt>
      <trkpt lat="43.23000841662409" lon="-4.078621945084071"></trkpt>
      <trkpt lat="43.23000077338727" lon="-4.0786139229045"></trkpt>
      <trkpt lat="43.22999077216117" lon="-4.078592857133333"></trkpt>
      <trkpt lat="43.22972738722764" lon="-4.078298108961313"></trkpt>
      <trkpt lat="43.22971743815009" lon="-4.078288613830922"></trkpt>
      <trkpt lat="43.22949993400361" lon="-4.078043878583284"></trkpt>
      <trkpt lat="43.22949789624835" lon="-4.078031850724814"></trkpt>
      <trkpt lat="43.22938021424923" lon="-4.077642343681895"></trkpt>
      <trkpt lat="43.22937519034868" lon="-4.07762893683767"></trkpt>
      <trkpt lat="43.229370593169" lon="-4.077618606174315"></trkpt>
      <trkpt lat="43.22936142912569" lon="-4.077597975010728"></trkpt>
      <trkpt lat="43.22923099702107" lon="-4.077263551132578"></trkpt>
      <trkpt lat="43.22883139611084" lon="-4.076528422204827"></trkpt>
      <trkpt lat="43.22882727528474" lon="-4.076515846833343"></trkpt>
      <trkpt lat="43.22857046486495" lon="-4.076004681121295"></trkpt>
      <trkpt lat="43.2281758358461" lon="-4.075466207307966"></trkpt>
      <trkpt lat="43.22817204971656" lon="-4.075453946595201"></trkpt>
      <trkpt lat="43.22791805492346" lon="-4.075083593059232"></trkpt>
      <trkpt lat="43.22775660926263" lon="-4.074853676081686"></trkpt>
      <trkpt lat="43.22749445880573" lon="-4.074365266688317"></trkpt>
      <trkpt lat="43.22748528187286" lon="-4.074344301112671"></trkpt>
      <trkpt lat="43.22744503944533" lon="-4.0740250910234"></trkpt>
      <trkpt lat="43.22744157262507" lon="-4.073979320742565"></trkpt>
      <trkpt lat="43.22742951502483" lon="-4.073624837015972"></trkpt>
      <trkpt lat="43.22742671618118" lon="-4.073615495671234"></trkpt>
      <trkpt lat="43.2272595066929" lon="-4.073295417272669"></trkpt>
      <trkpt lat="43.2270607527572" lon="-4.072940292665158"></trkpt>
      <trkpt lat="43.22704715171061" lon="-4.072908250929544"></trkpt>
      <trkpt lat="43.22703983648793" lon="-4.07288936301649"></trkpt>
      <trkpt lat="43.22678973736789" lon="-4.072282399723694"></trkpt>
      <trkpt lat="43.22646097089045" lon="-4.071566601556365"></trkpt>
      <trkpt lat="43.22645761089918" lon="-4.071542632187525"></trkpt>
      <trkpt lat="43.2263741570299" lon="-4.071163797147207"></trkpt>
      <trkpt lat="43.2263706284736" lon="-4.071136625624105"></trkpt>
      <trkpt lat="43.22637347915356" lon="-4.070846681592931"></trkpt>
      <trkpt lat="43.22651729618043" lon="-4.070737960012013"></trkpt>
      <trkpt lat="43.2265239949754" lon="-4.070744808133632"></trkpt>
      <trkpt lat="43.2268922418378" lon="-4.071100623798745"></trkpt>
      <trkpt lat="43.22690919081667" lon="-4.071119076100342"></trkpt>
      <trkpt lat="43.22723793918736" lon="-4.071334244780964"></trkpt>
      <trkpt lat="43.22725193017344" lon="-4.071340653758543"></trkpt>
      <trkpt lat="43.22772269097901" lon="-4.071584977223573"></trkpt>
      <trkpt lat="43.22815926639344" lon="-4.071740388405606"></trkpt>
      <trkpt lat="43.22816909924735" lon="-4.071750234568911"></trkpt>
      <trkpt lat="43.22885488628995" lon="-4.071895895459"></trkpt>
      <trkpt lat="43.22946086140455" lon="-4.072003769459163"></trkpt>
      <trkpt lat="43.22949086416994" lon="-4.072004162751491"></trkpt>
      <trkpt lat="43.23007276994888" lon="-4.072063402362658"></trkpt>
      <trkpt lat="43.23009713268049" lon="-4.072072232901688"></trkpt>
      <trkpt lat="43.23049970371721" lon="-4.072223373365023"></trkpt>
      <trkpt lat="43.23050440990441" lon="-4.072227580221986"></trkpt>
      <trkpt lat="43.23102937513268" lon="-4.072454730101651"></trkpt>
      <trkpt lat="43.23167542994708" lon="-4.072278318125214"></trkpt>
      <trkpt lat="43.23170428822203" lon="-4.072258222234573"></trkpt>
      <trkpt lat="43.23213702245697" lon="-4.072018924464114"></trkpt>
      <trkpt lat="43.23217985818526" lon="-4.071994041171108"></trkpt>
      <trkpt lat="43.23284949412773" lon="-4.071614198910303"></trkpt>
      <trkpt lat="43.23344549360075" lon="-4.071199283876372"></trkpt>
      <trkpt lat="43.23347323635099" lon="-4.071175344541018"></trkpt>
      <trkpt lat="43.23389557301223" lon="-4.070837205078558"></trkpt>
      <trkpt lat="43.23391645553072" lon="-4.070791951813683"></trkpt>
      <trkpt lat="43.23423433419519" lon="-4.070339263014437"></trkpt>
      <trkpt lat="43.23451264796924" lon="-4.070111890834662"></trkpt>
      <trkpt lat="43.23480709372525" lon="-4.070116594297951"></trkpt>
      <trkpt lat="43.23482108516239" lon="-4.070121244288014"></trkpt>
      <trkpt lat="43.23536197292062" lon="-4.0704247155667"></trkpt>
      <trkpt lat="43.2360165112081" lon="-4.070717978092464"></trkpt>
      <trkpt lat="43.23603208520616" lon="-4.070721923654661"></trkpt>
      <trkpt lat="43.2366454328094" lon="-4.070949935852783"></trkpt>
      <trkpt lat="43.23726076953714" lon="-4.071319237386437"></trkpt>
      <trkpt lat="43.23786990038434" lon="-4.071678828261334"></trkpt>
      <trkpt lat="43.23796791468712" lon="-4.071960563037442"></trkpt>
      <trkpt lat="43.23791412167486" lon="-4.072387394444041"></trkpt>
      <trkpt lat="43.23789285924687" lon="-4.073125280466615"></trkpt>
      <trkpt lat="43.23763936457021" lon="-4.073127027805059"></trkpt>
      <trkpt lat="43.23747000730665" lon="-4.073200704462384"></trkpt>
      <trkpt lat="43.23746406017244" lon="-4.07320384024191"></trkpt>
      <trkpt lat="43.23728150789286" lon="-4.073326430226654"></trkpt>
      <trkpt lat="43.2372616205006" lon="-4.07332807423915"></trkpt>
      <trkpt lat="43.23712116263011" lon="-4.07331957528425"></trkpt>
      <trkpt lat="43.23710782833155" lon="-4.073323913962977"></trkpt>
      <trkpt lat="43.23694904133691" lon="-4.073415678914683"></trkpt>
      <trkpt lat="43.23694040155333" lon="-4.073423753873016"></trkpt>
      <trkpt lat="43.23685315818011" lon="-4.073546767930756"></trkpt>
      <trkpt lat="43.23698412572465" lon="-4.073997849366999"></trkpt>
      <trkpt lat="43.2369866704696" lon="-4.073999100430362"></trkpt>
      <trkpt lat="43.23699157019888" lon="-4.074012434026749"></trkpt>
      <trkpt lat="43.23707425295117" lon="-4.074320309212265"></trkpt>
      <trkpt lat="43.23707734236207" lon="-4.074324285796497"></trkpt>
      <trkpt lat="43.23715726804662" lon="-4.074492809284621"></trkpt>
      <trkpt lat="43.23715904509609" lon="-4.074507065602258"></trkpt>
      <trkpt lat="43.23717107326821" lon="-4.074664140871"></trkpt>
      <trkpt lat="43.23723007022009" lon="-4.074887450716874"></trkpt>
      <trkpt lat="43.2372363675264" lon="-4.074995024537525"></trkpt>
      <trkpt lat="43.23723165494516" lon="-4.075001214290146"></trkpt>
      <trkpt lat="43.23712007542294" lon="-4.075054653011524"></trkpt>
      <trkpt lat="43.23711419805379" lon="-4.075056006089484"></trkpt>
      <trkpt lat="43.23709978411517" lon="-4.07506137204921"></trkpt>
      <trkpt lat="43.23694140212312" lon="-4.075113365597327"></trkpt>
      <trkpt lat="43.23693806311404" lon="-4.075113718014503"></trkpt>
      <trkpt lat="43.23692805344608" lon="-4.075114768136632"></trkpt>
      <trkpt lat="43.23681542716761" lon="-4.075158972388691"></trkpt>
      <trkpt lat="43.23651964154941" lon="-4.075310283705047"></trkpt>
      <trkpt lat="43.23651614099692" lon="-4.075310273729317"></trkpt>
      <trkpt lat="43.23630288445282" lon="-4.075356920148055"></trkpt>
      <trkpt lat="43.23629830445709" lon="-4.075358491279699"></trkpt>
      <trkpt lat="43.23615993793486" lon="-4.075423684293167"></trkpt>
      <trkpt lat="43.23615569541866" lon="-4.075426859434187"></trkpt>
      <trkpt lat="43.23614309935267" lon="-4.07543267184428"></trkpt>
      <trkpt lat="43.23613472968108" lon="-4.075435314615412"></trkpt>
      <trkpt lat="43.23598812460878" lon="-4.075491842229761"></trkpt>
      <trkpt lat="43.23584218586299" lon="-4.075595844953664"></trkpt>
      <trkpt lat="43.23581907342017" lon="-4.07560609236991"></trkpt>
      <trkpt lat="43.23560582606861" lon="-4.075704467943527"></trkpt>
      <trkpt lat="43.23559130609591" lon="-4.075705911230047"></trkpt>
      <trkpt lat="43.23526079597268" lon="-4.075734876834103"></trkpt>
      <trkpt lat="43.23524463829971" lon="-4.075735440037526"></trkpt>
      <trkpt lat="43.234998255306" lon="-4.075794919619867"></trkpt>
      <trkpt lat="43.23486649700176" lon="-4.075872326400022"></trkpt>
      <trkpt lat="43.23455762965676" lon="-4.076001952198177"></trkpt>
      <trkpt lat="43.23418675325441" lon="-4.076140780707926"></trkpt>
      <trkpt lat="43.23416608661593" lon="-4.076142588635573"></trkpt>
      <trkpt lat="43.23387092288846" lon="-4.07618875154243"></trkpt>
      <trkpt lat="43.23385159982631" lon="-4.076196982900894"></trkpt>
      <trkpt lat="43.23348979338318" lon="-4.076285569846833"></trkpt>
      <trkpt lat="43.23319108735548" lon="-4.076383242977108"></trkpt>
      <trkpt lat="43.23320663410396" lon="-4.076759370263254"></trkpt>
      <trkpt lat="43.23338777713131" lon="-4.07877304288685"></trkpt>
      <trkpt lat="43.23397188277069" lon="-4.080664788490747"></trkpt>
      <trkpt lat="43.23434069809964" lon="-4.081728349779236"></trkpt>
      <trkpt lat="43.2352006305422" lon="-4.083525098500242"></trkpt>
      <trkpt lat="43.23588531387027" lon="-4.084448248780889"></trkpt>
      <trkpt lat="43.2364232604779" lon="-4.085236285291446"></trkpt>
      <trkpt lat="43.23684084153149" lon="-4.08594260495844"></trkpt>
      <trkpt lat="43.23767164694217" lon="-4.087364370774289"></trkpt>
      <trkpt lat="43.23804643846734" lon="-4.088603220834505"></trkpt>
      <trkpt lat="43.23819759790485" lon="-4.089327004385629"></trkpt>
      <trkpt lat="43.23805824031186" lon="-4.091087600382311"></trkpt>
      <trkpt lat="43.23856305284547" lon="-4.092286446255224"></trkpt>
      <trkpt lat="43.23888316876776" lon="-4.093811495442898"></trkpt>
      <trkpt lat="43.23881474475357" lon="-4.094616228889358"></trkpt>
      <trkpt lat="43.23911727336879" lon="-4.095240584816697"></trkpt>
      <trkpt lat="43.23900317677241" lon="-4.095788872509505"></trkpt>
      <trkpt lat="43.2396798395777" lon="-4.096356392739645"></trkpt>
      <trkpt lat="43.23991975176691" lon="-4.09648902215033"></trkpt>
      <trkpt lat="43.24027223499974" lon="-4.096363498356171"></trkpt>
      <trkpt lat="43.24037121983731" lon="-4.096268951399816"></trkpt>
      <trkpt lat="43.24037622424663" lon="-4.096271531483703"></trkpt>
      <trkpt lat="43.2404348807218" lon="-4.096365782617021"></trkpt>
      <trkpt lat="43.24032446724075" lon="-4.096643203440854"></trkpt>
      <trkpt lat="43.24042374395713" lon="-4.096719268302143"></trkpt>
      <trkpt lat="43.24043020127611" lon="-4.09672219344592"></trkpt>
      <trkpt lat="43.24057733704507" lon="-4.096739162731097"></trkpt>
      <trkpt lat="43.24077173031962" lon="-4.096669505453252"></trkpt>
      <trkpt lat="43.24085267906787" lon="-4.096715376818109"></trkpt>
      <trkpt lat="43.24091719677547" lon="-4.096788046548712"></trkpt>
      <trkpt lat="43.24098749364044" lon="-4.096848864934519"></trkpt>
      <trkpt lat="43.24109684494403" lon="-4.096913276152259"></trkpt>
      <trkpt lat="43.24110304448389" lon="-4.096921183930901"></trkpt>
      <trkpt lat="43.24122545312044" lon="-4.097052092803342"></trkpt>
      <trkpt lat="43.24122730001449" lon="-4.097055587420758"></trkpt>
      <trkpt lat="43.24122968583273" lon="-4.097060086292483"></trkpt>
      <trkpt lat="43.24126620982099" lon="-4.097229069141427"></trkpt>
      <trkpt lat="43.24127297241947" lon="-4.097250046944722"></trkpt>
      <trkpt lat="43.24124146090111" lon="-4.097340078939221"></trkpt>
      <trkpt lat="43.24124263727767" lon="-4.097344905513911"></trkpt>
      <trkpt lat="43.24124362666122" lon="-4.097358305854168"></trkpt>
      <trkpt lat="43.24125164273129" lon="-4.09749628144659"></trkpt>
      <trkpt lat="43.24125461483798" lon="-4.097510561189408"></trkpt>
      <trkpt lat="43.24134193201689" lon="-4.097712199301096"></trkpt>
      <trkpt lat="43.24134891430482" lon="-4.097720548766355"></trkpt>
      <trkpt lat="43.2413529122316" lon="-4.097724553868465"></trkpt>
      <trkpt lat="43.24153951672634" lon="-4.09790801238838"></trkpt>
      <trkpt lat="43.24154284799773" lon="-4.097909629125954"></trkpt>
      <trkpt lat="43.24177258293381" lon="-4.09795868310861"></trkpt>
      <trkpt lat="43.24211771910022" lon="-4.097980518048616"></trkpt>
      <trkpt lat="43.24212825370871" lon="-4.097985559461124"></trkpt>
      <trkpt lat="43.24249068733975" lon="-4.098032979440696"></trkpt>
      <trkpt lat="43.24280991118854" lon="-4.097911336742302"></trkpt>
      <trkpt lat="43.24282298777228" lon="-4.097906527045632"></trkpt>
      <trkpt lat="43.2431668394155" lon="-4.097864976859809"></trkpt>
      <trkpt lat="43.24334573817396" lon="-4.09780643132431"></trkpt>
      <trkpt lat="43.2433742736911" lon="-4.097789528115517"></trkpt>
      <trkpt lat="43.24369301730894" lon="-4.097735116194499"></trkpt>
      <trkpt lat="43.24370210859208" lon="-4.097743830783649"></trkpt>
      <trkpt lat="43.24399439873637" lon="-4.097989979032153"></trkpt>
      <trkpt lat="43.24427939233892" lon="-4.098258751590482"></trkpt>
      <trkpt lat="43.24429833011661" lon="-4.098284289958153"></trkpt>
      <trkpt lat="43.24455429105859" lon="-4.098793442132914"></trkpt>
      <trkpt lat="43.24474929498398" lon="-4.099032339526182"></trkpt>
      <trkpt lat="43.24477228600854" lon="-4.099046845764232"></trkpt>
      <trkpt lat="43.2451888596469" lon="-4.099269802512646"></trkpt>
      <trkpt lat="43.24555584689573" lon="-4.09924309594346"></trkpt>
      <trkpt lat="43.24557157276418" lon="-4.099247438250734"></trkpt>
      <trkpt lat="43.24595058481424" lon="-4.099310954634267"></trkpt>
      <trkpt lat="43.24596097225145" lon="-4.099309751194459"></trkpt>
      <trkpt lat="43.24599474952719" lon="-4.099323280696358"></trkpt>
      <trkpt lat="43.24630129367817" lon="-4.099501226727188"></trkpt>
      <trkpt lat="43.2463096404439" lon="-4.099508438800057"></trkpt>
      <trkpt lat="43.24654192103556" lon="-4.099744139520238"></trkpt>
      <trkpt lat="43.24655654250086" lon="-4.099761190460888"></trkpt>
      <trkpt lat="43.24669303013999" lon="-4.099911444202067"></trkpt>
      <trkpt lat="43.24720083764016" lon="-4.099726526273598"></trkpt>
      <trkpt lat="43.24720625503434" lon="-4.099727877979254"></trkpt>
      <trkpt lat="43.24755855760411" lon="-4.099548488213713"></trkpt>
      <trkpt lat="43.24758091508149" lon="-4.099529591770292"></trkpt>
      <trkpt lat="43.24791465666273" lon="-4.099262258923813"></trkpt>
      <trkpt lat="43.24793544979766" lon="-4.099242113437463"></trkpt>
      <trkpt lat="43.24821844837504" lon="-4.098978003002861"></trkpt>
      <trkpt lat="43.24822988517507" lon="-4.098966429132379"></trkpt>
      <trkpt lat="43.24851030206325" lon="-4.098842839559373"></trkpt>
      <trkpt lat="43.24789512785257" lon="-4.099749421175921"></trkpt>
      <trkpt lat="43.24787379972572" lon="-4.099779574264558"></trkpt>
      <trkpt lat="43.24725168408494" lon="-4.100905712882275"></trkpt>
      <trkpt lat="43.24724578186346" lon="-4.100931872580662"></trkpt>
      <trkpt lat="43.24654322374085" lon="-4.101965898168106"></trkpt>
      <trkpt lat="43.24541041580362" lon="-4.103222810531246"></trkpt>
      <trkpt lat="43.24538592932752" lon="-4.103243960799893"></trkpt>
      <trkpt lat="43.24453835656919" lon="-4.104113870617153"></trkpt>
      <trkpt lat="43.24352011361545" lon="-4.105266176228253"></trkpt>
      <trkpt lat="43.24347956245347" lon="-4.105340450130662"></trkpt>
      <trkpt lat="43.24337599284254" lon="-4.105454493449709"></trkpt>
      <trkpt lat="43.2424228979222" lon="-4.106457452117317"></trkpt>
      <trkpt lat="43.24239168496203" lon="-4.106471738314113"></trkpt>
      <trkpt lat="43.24175637334747" lon="-4.107202981760577"></trkpt>
      <trkpt lat="43.2412017682062" lon="-4.108442001839623"></trkpt>
      <trkpt lat="43.24119196443444" lon="-4.108481655043174"></trkpt>
      <trkpt lat="43.24128405367169" lon="-4.110623904714739"></trkpt>
      <trkpt lat="43.24173732716906" lon="-4.1129732622666"></trkpt>
      <trkpt lat="43.24213980460123" lon="-4.115492041803811"></trkpt>
      <trkpt lat="43.24215417163353" lon="-4.115560564736929"></trkpt>
      <trkpt lat="43.24237400011958" lon="-4.117491604371024"></trkpt>
      <trkpt lat="43.243546596755" lon="-4.11936831935629"></trkpt>
      <trkpt lat="43.24476915345274" lon="-4.121215138099284"></trkpt>
      <trkpt lat="43.24763993234652" lon="-4.124612017579395"></trkpt>
      <trkpt lat="43.24951770736968" lon="-4.132024732266596"></trkpt>
      <trkpt lat="43.24941763936195" lon="-4.132766271439712"></trkpt>
      <trkpt lat="43.24942469729761" lon="-4.132796968449316"></trkpt>
      <trkpt lat="43.24931418807544" lon="-4.133732738750683"></trkpt>
      <trkpt lat="43.24937674644475" lon="-4.13408991876273"></trkpt>
      <trkpt lat="43.24939198757376" lon="-4.134088840958764"></trkpt>
      <trkpt lat="43.24984893404963" lon="-4.134251809553653"></trkpt>
      <trkpt lat="43.25019546445351" lon="-4.134802177928667"></trkpt>
      <trkpt lat="43.25057494489972" lon="-4.135457180787529"></trkpt>
      <trkpt lat="43.25058959446068" lon="-4.135495165039982"></trkpt>
      <trkpt lat="43.25093053318167" lon="-4.136270302543905"></trkpt>
      <trkpt lat="43.25112706579823" lon="-4.137584271050555"></trkpt>
      <trkpt lat="43.25124958868051" lon="-4.138143243728409"></trkpt>
      <trkpt lat="43.2514355139389" lon="-4.138843734192623"></trkpt>
      <trkpt lat="43.2514427672867" lon="-4.13893684329635"></trkpt>
      <trkpt lat="43.25143331103801" lon="-4.138994203569451"></trkpt>
      <trkpt lat="43.25153190622238" lon="-4.139618265379919"></trkpt>
      <trkpt lat="43.25156435162071" lon="-4.139690167025917"></trkpt>
      <trkpt lat="43.25193533014417" lon="-4.140688183622132"></trkpt>
      <trkpt lat="43.25196070809132" lon="-4.140733864941179"></trkpt>
      <trkpt lat="43.25198935244834" lon="-4.140793134024201"></trkpt>
      <trkpt lat="43.25268618040477" lon="-4.141925848699207"></trkpt>
      <trkpt lat="43.25271735091412" lon="-4.142031313543785"></trkpt>
      <trkpt lat="43.25272844531838" lon="-4.14207114522342"></trkpt>
      <trkpt lat="43.2530077064322" lon="-4.143010381145587"></trkpt>
      <trkpt lat="43.25301343478481" lon="-4.143051930957798"></trkpt>
      <trkpt lat="43.25337881719429" lon="-4.143822040450344"></trkpt>
      <trkpt lat="43.2533961833139" lon="-4.143913763713918"></trkpt>
      <trkpt lat="43.25350666056298" lon="-4.14494260631693"></trkpt>
      <trkpt lat="43.25341757719582" lon="-4.145387381303821"></trkpt>
      <trkpt lat="43.25350118393673" lon="-4.145788634768276"></trkpt>
      <trkpt lat="43.25350603007487" lon="-4.14581406494574"></trkpt>
      <trkpt lat="43.25368263009857" lon="-4.145970041473813"></trkpt>
      <trkpt lat="43.25388566964811" lon="-4.146058173719495"></trkpt>
      <trkpt lat="43.25389599317631" lon="-4.146071197165156"></trkpt>
      <trkpt lat="43.25403835236611" lon="-4.146334619411782"></trkpt>
      <trkpt lat="43.25405094545149" lon="-4.146367791809871"></trkpt>
      <trkpt lat="43.25403734048154" lon="-4.146916708807536"></trkpt>
      <trkpt lat="43.25403955990743" lon="-4.146936087726826"></trkpt>
      <trkpt lat="43.25415909278248" lon="-4.147203363732094"></trkpt>
      <trkpt lat="43.25416955902247" lon="-4.147210818513885"></trkpt>
      <trkpt lat="43.25429628941308" lon="-4.147376106436004"></trkpt>
      <trkpt lat="43.25430496551585" lon="-4.147402321878811"></trkpt>
      <trkpt lat="43.25433797709884" lon="-4.147672679022164"></trkpt>
      <trkpt lat="43.2543028143638" lon="-4.147895630907907"></trkpt>
      <trkpt lat="43.25440727142067" lon="-4.147802000984782"></trkpt>
      <trkpt lat="43.25444501485416" lon="-4.147743479769649"></trkpt>
      <trkpt lat="43.25458830143525" lon="-4.147463414371316"></trkpt>
      <trkpt lat="43.25433802746933" lon="-4.147209213245498"></trkpt>
      <trkpt lat="43.25433003469217" lon="-4.147195546741998"></trkpt>
      <trkpt lat="43.25417052802893" lon="-4.146865407194309"></trkpt>
      <trkpt lat="43.25419621288108" lon="-4.146802615352922"></trkpt>
      <trkpt lat="43.25421651851455" lon="-4.14640077596225"></trkpt>
      <trkpt lat="43.25422361237268" lon="-4.146360765457951"></trkpt>
      <trkpt lat="43.25426288048021" lon="-4.146281117141858"></trkpt>
      <trkpt lat="43.25408262887164" lon="-4.145962653365718"></trkpt>
      <trkpt lat="43.25402129091295" lon="-4.145950384937125"></trkpt>
      <trkpt lat="43.25399260022015" lon="-4.145950965268398"></trkpt>
      <trkpt lat="43.2536461407866" lon="-4.145789961539169"></trkpt>
      <trkpt lat="43.2536210839559" lon="-4.145764929257282"></trkpt>
      <trkpt lat="43.25347901156474" lon="-4.145408464205286"></trkpt>
      <trkpt lat="43.2534897516591" lon="-4.145361810212497"></trkpt>
      <trkpt lat="43.25363041935602" lon="-4.144577927842642"></trkpt>
      <trkpt lat="43.25364673805083" lon="-4.144518902923"></trkpt>
      <trkpt lat="43.25363688507871" lon="-4.144174096963686"></trkpt>
      <trkpt lat="43.25324431954283" lon="-4.143074248298743"></trkpt>
      <trkpt lat="43.25324786116773" lon="-4.143032241182198"></trkpt>
      <trkpt lat="43.25290048609074" lon="-4.142444213658893"></trkpt>
      <trkpt lat="43.25288621817194" lon="-4.142388186656426"></trkpt>
      <trkpt lat="43.25253233737975" lon="-4.141424296475175"></trkpt>
      <trkpt lat="43.25252684333444" lon="-4.141394021761688"></trkpt>
      <trkpt lat="43.25214672022295" lon="-4.140838344942869"></trkpt>
      <trkpt lat="43.25213565935935" lon="-4.140796178283516"></trkpt>
      <trkpt lat="43.25184176334572" lon="-4.140129777359542"></trkpt>
      <trkpt lat="43.25181776823323" lon="-4.140023891028979"></trkpt>
      <trkpt lat="43.25167373739247" lon="-4.139406156815247"></trkpt>
      <trkpt lat="43.25143729486403" lon="-4.138592664253804"></trkpt>
      <trkpt lat="43.25020807292907" lon="-4.133254289667011"></trkpt>
      <trkpt lat="43.25084370111162" lon="-4.132832675906127"></trkpt>
      <trkpt lat="43.251504741855" lon="-4.132158899720233"></trkpt>
      <trkpt lat="43.25199770885834" lon="-4.13231781811013"></trkpt>
      <trkpt lat="43.25200220251002" lon="-4.132320952643963"></trkpt>
      <trkpt lat="43.25250105221559" lon="-4.132668891521533"></trkpt>
      <trkpt lat="43.25276760838391" lon="-4.132479590199145"></trkpt>
      <trkpt lat="43.25297646240638" lon="-4.132204024342931"></trkpt>
      <trkpt lat="43.25298084022413" lon="-4.132188318828073"></trkpt>
      <trkpt lat="43.25304313709153" lon="-4.13180843225983"></trkpt>
      <trkpt lat="43.25312172142398" lon="-4.131464090732599"></trkpt>
      <trkpt lat="43.25326749690397" lon="-4.131524209567688"></trkpt>
      <trkpt lat="43.2533649042891" lon="-4.131494267347406"></trkpt>
      <trkpt lat="43.25337749616167" lon="-4.131479726905704"></trkpt>
      <trkpt lat="43.25350487946226" lon="-4.131276038721805"></trkpt>
      <trkpt lat="43.25352685335805" lon="-4.131259683059081"></trkpt>
      <trkpt lat="43.25379927015423" lon="-4.131173071177304"></trkpt>
      <trkpt lat="43.25381822139899" lon="-4.131159418887985"></trkpt>
      <trkpt lat="43.254186761374" lon="-4.130964979690292"></trkpt>
      <trkpt lat="43.25420343889094" lon="-4.130955535406398"></trkpt>
      <trkpt lat="43.25447445905719" lon="-4.130790410378776"></trkpt>
      <trkpt lat="43.25449110834281" lon="-4.130782281318291"></trkpt>
      <trkpt lat="43.25483542450286" lon="-4.130576526834691"></trkpt>
      <trkpt lat="43.25489579103214" lon="-4.130577028728397"></trkpt>
      <trkpt lat="43.2559020177513" lon="-4.13040113498114"></trkpt>
      <trkpt lat="43.25671293574026" lon="-4.130517549097926"></trkpt>
      <trkpt lat="43.25770361027476" lon="-4.129491790492991"></trkpt>
      <trkpt lat="43.25845529629724" lon="-4.128146032336428"></trkpt>
      <trkpt lat="43.25920041758189" lon="-4.127634793746497"></trkpt>
      <trkpt lat="43.2596365064177" lon="-4.1264909727598"></trkpt>
      <trkpt lat="43.25990289524913" lon="-4.126236571723503"></trkpt>
      <trkpt lat="43.26009974935554" lon="-4.128296344750893"></trkpt>
      <trkpt lat="43.25954056212409" lon="-4.129865485229236"></trkpt>
      <trkpt lat="43.25982736590937" lon="-4.130466314424732"></trkpt>
      <trkpt lat="43.25967865645" lon="-4.131615346802388"></trkpt>
      <trkpt lat="43.25867580206627" lon="-4.134117760873167"></trkpt>
      <trkpt lat="43.25778152329244" lon="-4.134939462677815"></trkpt>
      <trkpt lat="43.2581458553796" lon="-4.135548681471079"></trkpt>
      <trkpt lat="43.25805756623716" lon="-4.135926686803564"></trkpt>
      <trkpt lat="43.25822988778768" lon="-4.136378683545779"></trkpt>
      <trkpt lat="43.25918485807576" lon="-4.136532274780809"></trkpt>
      <trkpt lat="43.25959357625325" lon="-4.137599345668899"></trkpt>
      <trkpt lat="43.26028767664742" lon="-4.137577251614733"></trkpt>
      <trkpt lat="43.26067055264144" lon="-4.138079614339222"></trkpt>
      <trkpt lat="43.26103830236582" lon="-4.138198838722108"></trkpt>
      <trkpt lat="43.26132906647385" lon="-4.138097781195121"></trkpt>
      <trkpt lat="43.26173744701094" lon="-4.138335018026301"></trkpt>
      <trkpt lat="43.26220904257697" lon="-4.1395028476697"></trkpt>
      <trkpt lat="43.26222108279324" lon="-4.140202386951971"></trkpt>
      <trkpt lat="43.2628525025526" lon="-4.140796336298367"></trkpt>
      <trkpt lat="43.26316213807202" lon="-4.141534070177223"></trkpt>
      <trkpt lat="43.26341099152908" lon="-4.141539741120638"></trkpt>
      <trkpt lat="43.26366502989631" lon="-4.141759914050215"></trkpt>
      <trkpt lat="43.26437753747491" lon="-4.141707426214158"></trkpt>
      <trkpt lat="43.26482781373145" lon="-4.141538933264326"></trkpt>
      <trkpt lat="43.26532175589848" lon="-4.141756015457547"></trkpt>
      <trkpt lat="43.2657654550013" lon="-4.141629315693417"></trkpt>
      <trkpt lat="43.26590430719349" lon="-4.142325202596338"></trkpt>
      <trkpt lat="43.26592627801162" lon="-4.142675091413039"></trkpt>
      <trkpt lat="43.26474650456576" lon="-4.142832531881621"></trkpt>
      <trkpt lat="43.26325518521826" lon="-4.143629125656814"></trkpt>
      <trkpt lat="43.2623245177323" lon="-4.143888266695141"></trkpt>
      <trkpt lat="43.26124432235981" lon="-4.144006137952666"></trkpt>
      <trkpt lat="43.26031395496055" lon="-4.144339658463325"></trkpt>
      <trkpt lat="43.25979084180963" lon="-4.144799804981164"></trkpt>
      <trkpt lat="43.25911964220573" lon="-4.145391707351251"></trkpt>
      <trkpt lat="43.25858171837503" lon="-4.14510132015737"></trkpt>
      <trkpt lat="43.25767060420044" lon="-4.146284621799632"></trkpt>
      <trkpt lat="43.25659379237359" lon="-4.146565716884341"></trkpt>
      <trkpt lat="43.25555441423428" lon="-4.147236289410517"></trkpt>
      <trkpt lat="43.25441670473202" lon="-4.14834750191511"></trkpt>
      <trkpt lat="43.25439183378821" lon="-4.149630117804826"></trkpt>
      <trkpt lat="43.25440534919699" lon="-4.151351361418277"></trkpt>
      <trkpt lat="43.25438720339891" lon="-4.15132515210086"></trkpt>
      <trkpt lat="43.25438125306474" lon="-4.151358262851542"></trkpt>
      <trkpt lat="43.25437415833324" lon="-4.151373262094989"></trkpt>
      <trkpt lat="43.25432737627108" lon="-4.152684359942048"></trkpt>
      <trkpt lat="43.25432266491254" lon="-4.152730391096356"></trkpt>
      <trkpt lat="43.25443871948434" lon="-4.153719043954957"></trkpt>
      <trkpt lat="43.25444645360874" lon="-4.153746907240436"></trkpt>
      <trkpt lat="43.25446114646389" lon="-4.153787155214999"></trkpt>
      <trkpt lat="43.25507333590923" lon="-4.155250799630466"></trkpt>
      <trkpt lat="43.25498865686883" lon="-4.154782951031494"></trkpt>
      <trkpt lat="43.25496086054506" lon="-4.154706939601044"></trkpt>
      <trkpt lat="43.25469235841478" lon="-4.153989337066919"></trkpt>
      <trkpt lat="43.25467358951546" lon="-4.153948770526542"></trkpt>
      <trkpt lat="43.25465784684444" lon="-4.15391670036025"></trkpt>
      <trkpt lat="43.25450851389876" lon="-4.153270408522393"></trkpt>
      <trkpt lat="43.25449331837639" lon="-4.153219763624397"></trkpt>
      <trkpt lat="43.25449337117927" lon="-4.153206057580407"></trkpt>
      <trkpt lat="43.25443710249672" lon="-4.152564920130358"></trkpt>
      <trkpt lat="43.25444049501089" lon="-4.152534375455858"></trkpt>
      <trkpt lat="43.25444085325877" lon="-4.15250997405182"></trkpt>
      <trkpt lat="43.25446678067944" lon="-4.15201913919595"></trkpt>
      <trkpt lat="43.25446776462354" lon="-4.151996734829648"></trkpt>
      <trkpt lat="43.25442755370875" lon="-4.151675547403503"></trkpt>
      <trkpt lat="43.25442934799506" lon="-4.151662009486236"></trkpt>
      <trkpt lat="43.2544496826818" lon="-4.15142254395655"></trkpt>
      <trkpt lat="43.25445029976608" lon="-4.15141232602444"></trkpt>
      <trkpt lat="43.25444867805413" lon="-4.151397728424291"></trkpt>
      <trkpt lat="43.25462610498032" lon="-4.151238931839679"></trkpt>
      <trkpt lat="43.25464542043196" lon="-4.151234498597986"></trkpt>
      <trkpt lat="43.25511035052435" lon="-4.151154648838911"></trkpt>
      <trkpt lat="43.2556031584223" lon="-4.151054784643887"></trkpt>
      <trkpt lat="43.25765506991223" lon="-4.151075340535386"></trkpt>
      <trkpt lat="43.25975257746482" lon="-4.151013708206026"></trkpt>
      <trkpt lat="43.26177282593535" lon="-4.150929925164931"></trkpt>
      <trkpt lat="43.26365009419079" lon="-4.150959273024264"></trkpt>
      <trkpt lat="43.26506694625945" lon="-4.149083234688504"></trkpt>
      <trkpt lat="43.26604868876643" lon="-4.148154418667289"></trkpt>
      <trkpt lat="43.26700970558618" lon="-4.147685766252303"></trkpt>
      <trkpt lat="43.26643055788671" lon="-4.146670236952321"></trkpt>
      <trkpt lat="43.26569825560573" lon="-4.145554562571831"></trkpt>
      <trkpt lat="43.26691667798282" lon="-4.144220174062932"></trkpt>
      <trkpt lat="43.26769436352009" lon="-4.142901746586299"></trkpt>
      <trkpt lat="43.26690840903446" lon="-4.142819605010008"></trkpt>
      <trkpt lat="43.26697958556331" lon="-4.142222313421119"></trkpt>
      <trkpt lat="43.26741984958212" lon="-4.142065603413119"></trkpt>
      <trkpt lat="43.26767485819836" lon="-4.142182533735154"></trkpt>
      <trkpt lat="43.26793127832328" lon="-4.142046428555108"></trkpt>
      <trkpt lat="43.26805090793448" lon="-4.141549832888929"></trkpt>
      <trkpt lat="43.26799584433984" lon="-4.140868954832014"></trkpt>
      <trkpt lat="43.26816654795962" lon="-4.139310776246244"></trkpt>
      <trkpt lat="43.26841507423954" lon="-4.138837706927796"></trkpt>
      <trkpt lat="43.26902674092014" lon="-4.138189102090816"></trkpt>
      <trkpt lat="43.26917137322326" lon="-4.137813983847519"></trkpt>
      <trkpt lat="43.26991179377101" lon="-4.137166896678561"></trkpt>
      <trkpt lat="43.27043652953086" lon="-4.136160779225121"></trkpt>
      <trkpt lat="43.27084432455653" lon="-4.136058761111854"></trkpt>
      <trkpt lat="43.27105687420892" lon="-4.135743078097085"></trkpt>
      <trkpt lat="43.27110722687958" lon="-4.135247279225277"></trkpt>
      <trkpt lat="43.27163011503547" lon="-4.134414910643606"></trkpt>
      <trkpt lat="43.2714276410116" lon="-4.133810352328927"></trkpt>
      <trkpt lat="43.27174093671776" lon="-4.133155752052133"></trkpt>
      <trkpt lat="43.27244996021498" lon="-4.132819755429928"></trkpt>
      <trkpt lat="43.27282709344956" lon="-4.132261972969948"></trkpt>
      <trkpt lat="43.27302800662437" lon="-4.133131354861316"></trkpt>
      <trkpt lat="43.27324662245008" lon="-4.132749322185542"></trkpt>
      <trkpt lat="43.27387218773582" lon="-4.132137617843962"></trkpt>
      <trkpt lat="43.27324355107446" lon="-4.130276882063695"></trkpt>
      <trkpt lat="43.27343254537901" lon="-4.129558664181127"></trkpt>
      <trkpt lat="43.27339154812763" lon="-4.128339478202624"></trkpt>
      <trkpt lat="43.27370384927541" lon="-4.127515304202447"></trkpt>
      <trkpt lat="43.27354203925596" lon="-4.125694322708393"></trkpt>
      <trkpt lat="43.27385470798677" lon="-4.125373713274581"></trkpt>
      <trkpt lat="43.27388068655577" lon="-4.124223797010492"></trkpt>
      <trkpt lat="43.27413406585133" lon="-4.123913731244349"></trkpt>
      <trkpt lat="43.27487942945668" lon="-4.122471147082914"></trkpt>
      <trkpt lat="43.2747659448603" lon="-4.121164273041798"></trkpt>
      <trkpt lat="43.27487528219284" lon="-4.119975050880262"></trkpt>
      <trkpt lat="43.27466680378836" lon="-4.118857137719091"></trkpt>
      <trkpt lat="43.27513141667851" lon="-4.116749612253257"></trkpt>
      <trkpt lat="43.27522785786636" lon="-4.114493952059228"></trkpt>
      <trkpt lat="43.275152604864" lon="-4.11248492864452"></trkpt>
      <trkpt lat="43.27436908401079" lon="-4.111503333773394"></trkpt>
      <trkpt lat="43.27409903395096" lon="-4.110606057521645"></trkpt>
      <trkpt lat="43.27381699340448" lon="-4.110781266990308"></trkpt>
      <trkpt lat="43.27361324537011" lon="-4.110698765654826"></trkpt>
      <trkpt lat="43.27437571696674" lon="-4.107384280819702"></trkpt>
      <trkpt lat="43.27457937737157" lon="-4.105586273115289"></trkpt>
      <trkpt lat="43.27414790829791" lon="-4.104829000460696"></trkpt>
      <trkpt lat="43.2739494942761" lon="-4.10418121945487"></trkpt>
      <trkpt lat="43.27396647579065" lon="-4.104120167764616"></trkpt>
      <trkpt lat="43.27453543447767" lon="-4.10252938288868"></trkpt>
      <trkpt lat="43.27459061261848" lon="-4.102387658166492"></trkpt>
      <trkpt lat="43.27538436485515" lon="-4.098810111247053"></trkpt>
      <trkpt lat="43.27572934725519" lon="-4.097237200914242"></trkpt>
      <trkpt lat="43.27575527306553" lon="-4.09710229234024"></trkpt>
      <trkpt lat="43.27670870896295" lon="-4.094373179706658"></trkpt>
      <trkpt lat="43.27672320092528" lon="-4.094298870457804"></trkpt>
      <trkpt lat="43.27716551817283" lon="-4.09319767073053"></trkpt>
      <trkpt lat="43.27812517142307" lon="-4.092181425187142"></trkpt>
      <trkpt lat="43.27868533825357" lon="-4.09108491516732"></trkpt>
      <trkpt lat="43.27836932558371" lon="-4.089620608550999"></trkpt>
      <trkpt lat="43.27856788714853" lon="-4.087757167990523"></trkpt>
      <trkpt lat="43.27860451469149" lon="-4.086549289339763"></trkpt>
      <trkpt lat="43.27857571250711" lon="-4.084966076428041"></trkpt>
      <trkpt lat="43.27858295531777" lon="-4.08489561841259"></trkpt>
      <trkpt lat="43.27892342321451" lon="-4.083446332931814"></trkpt>
      <trkpt lat="43.27893477555725" lon="-4.083331813625925"></trkpt>
      <trkpt lat="43.27900469113643" lon="-4.081587973869839"></trkpt>
      <trkpt lat="43.27899224264999" lon="-4.081392627655575"></trkpt>
      <trkpt lat="43.27870235080359" lon="-4.079468917688632"></trkpt>
      <trkpt lat="43.2783346803171" lon="-4.077856332265198"></trkpt>
      <trkpt lat="43.27882990908697" lon="-4.080370899218399"></trkpt>
      <trkpt lat="43.27900658784021" lon="-4.082261723759998"></trkpt>
      <trkpt lat="43.27875311256498" lon="-4.084284106806297"></trkpt>
      <trkpt lat="43.27862268918233" lon="-4.087021188751749"></trkpt>
      <trkpt lat="43.27837546928242" lon="-4.089012027059228"></trkpt>
      <trkpt lat="43.27851582984938" lon="-4.090439682890372"></trkpt>
      <trkpt lat="43.27853926011025" lon="-4.091521662001688"></trkpt>
      <trkpt lat="43.27770334680505" lon="-4.092575595497864"></trkpt>
      <trkpt lat="43.2769804541471" lon="-4.093642052658454"></trkpt>
      <trkpt lat="43.27631260245477" lon="-4.095321145529338"></trkpt>
      <trkpt lat="43.27549555046714" lon="-4.098201526927654"></trkpt>
      <trkpt lat="43.27494107360423" lon="-4.101190337564647"></trkpt>
      <trkpt lat="43.27415234106027" lon="-4.103437294708026"></trkpt>
      <trkpt lat="43.27441691425863" lon="-4.105260177792425"></trkpt>
      <trkpt lat="43.27453061550009" lon="-4.106372580514661"></trkpt>
      <trkpt lat="43.27391843780501" lon="-4.109195567342211"></trkpt>
      <trkpt lat="43.27338342016225" lon="-4.111357128359408"></trkpt>
      <trkpt lat="43.27324535986666" lon="-4.111790898547737"></trkpt>
      <trkpt lat="43.27289331221962" lon="-4.11207099887376"></trkpt>
      <trkpt lat="43.27263291868071" lon="-4.11248424797328"></trkpt>
      <trkpt lat="43.27252341593335" lon="-4.112718630757112"></trkpt>
      <trkpt lat="43.27224080399338" lon="-4.112841778798286"></trkpt>
      <trkpt lat="43.27201962993978" lon="-4.113899666578532"></trkpt>
      <trkpt lat="43.27166763979271" lon="-4.1136843836479"></trkpt>
      <trkpt lat="43.27136366979796" lon="-4.113909797241161"></trkpt>
      <trkpt lat="43.27126188729455" lon="-4.114248379341218"></trkpt>
      <trkpt lat="43.27056128440761" lon="-4.114154348574285"></trkpt>
      <trkpt lat="43.26993147610394" lon="-4.114856445252011"></trkpt>
      <trkpt lat="43.26952918952869" lon="-4.114637782645949"></trkpt>
      <trkpt lat="43.26921191599298" lon="-4.113993142676864"></trkpt>
      <trkpt lat="43.26815590409473" lon="-4.113350558826054"></trkpt>
      <trkpt lat="43.26773973472982" lon="-4.113552172811541"></trkpt>
      <trkpt lat="43.26719141427094" lon="-4.114647243263448"></trkpt>
      <trkpt lat="43.26692082357494" lon="-4.114841538416295"></trkpt>
      <trkpt lat="43.26670438417513" lon="-4.115413256182884"></trkpt>
      <trkpt lat="43.26663588681134" lon="-4.116682900775764"></trkpt>
      <trkpt lat="43.26613912291666" lon="-4.117339427840677"></trkpt>
      <trkpt lat="43.26567432198663" lon="-4.119512807717006"></trkpt>
      <trkpt lat="43.26487003134088" lon="-4.120082120634406"></trkpt>
      <trkpt lat="43.26436411427463" lon="-4.120832698008069"></trkpt>
      <trkpt lat="43.26384991315559" lon="-4.120810203843218"></trkpt>
      <trkpt lat="43.26356721577516" lon="-4.121595846776867"></trkpt>
      <trkpt lat="43.26305618142248" lon="-4.121792170498667"></trkpt>
      <trkpt lat="43.26264325454527" lon="-4.122104982228556"></trkpt>
      <trkpt lat="43.26252277436286" lon="-4.122333815655823"></trkpt>
      <trkpt lat="43.26214475636578" lon="-4.122623339184854"></trkpt>
      <trkpt lat="43.26161128390239" lon="-4.123415068579449"></trkpt>
      <trkpt lat="43.26129342891046" lon="-4.124629864574726"></trkpt>
      <trkpt lat="43.26054184524769" lon="-4.125531701488024"></trkpt>
      <trkpt lat="43.26005246995894" lon="-4.126082339034063"></trkpt>
      <trkpt lat="43.25963082402176" lon="-4.126282798315707"></trkpt>
      <trkpt lat="43.25699441164072" lon="-4.129830708021772"></trkpt>
      <trkpt lat="43.2537132861248" lon="-4.130625979857268"></trkpt>
      <trkpt lat="43.25013460844747" lon="-4.132554413006455"></trkpt>
      <trkpt lat="43.24943725664323" lon="-4.131785772815279"></trkpt>
      <trkpt lat="43.24922757958891" lon="-4.12906251976069"></trkpt>
      <trkpt lat="43.24820757731201" lon="-4.128143380925078"></trkpt>
      <trkpt lat="43.24838888959863" lon="-4.126435354575102"></trkpt>
      <trkpt lat="43.24790779363144" lon="-4.124542319272898"></trkpt>
      <trkpt lat="43.24635302086868" lon="-4.12275707844573"></trkpt>
      <trkpt lat="43.24472147174198" lon="-4.121330067524681"></trkpt>
      <trkpt lat="43.24446908217015" lon="-4.120739283044585"></trkpt>
      <trkpt lat="43.24339872073039" lon="-4.119392845483669"></trkpt>
      <trkpt lat="43.24221851284795" lon="-4.117642699372775"></trkpt>
      <trkpt lat="43.24193227393522" lon="-4.114118815781547"></trkpt>
      <trkpt lat="43.24103647347336" lon="-4.110095857289563"></trkpt>
      <trkpt lat="43.24114654943013" lon="-4.107828573123181"></trkpt>
      <trkpt lat="43.24293613629151" lon="-4.105528066606297"></trkpt>
      <trkpt lat="43.24488147098884" lon="-4.103408913080307"></trkpt>
      <trkpt lat="43.24688937164416" lon="-4.101739152877903"></trkpt>
      <trkpt lat="43.2485655874794" lon="-4.098867903011537"></trkpt>
      <trkpt lat="43.24923102901535" lon="-4.09826969698975"></trkpt>
      <trkpt lat="43.25096194725686" lon="-4.097965090989836"></trkpt>
      <trkpt lat="43.25240971936924" lon="-4.096563765106474"></trkpt>
      <trkpt lat="43.25377004285997" lon="-4.095374414667349"></trkpt>
      <trkpt lat="43.25514196790322" lon="-4.09238093681566"></trkpt>
      <trkpt lat="43.25749436016518" lon="-4.089347006969678"></trkpt>
      <trkpt lat="43.26004754903389" lon="-4.086414527723337"></trkpt>
      <trkpt lat="43.2616948215576" lon="-4.082229523534452"></trkpt>
      <trkpt lat="43.26053512041455" lon="-4.082233328143889"></trkpt>
      <trkpt lat="43.25998150170944" lon="-4.082743228045691"></trkpt>
      <trkpt lat="43.25925592751466" lon="-4.082831160583052"></trkpt>
      <trkpt lat="43.25911742518745" lon="-4.083578155996737"></trkpt>
      <trkpt lat="43.25851069178882" lon="-4.084336446378823"></trkpt>
      <trkpt lat="43.25791053576514" lon="-4.08474031266209"></trkpt>
      <trkpt lat="43.25661681127077" lon="-4.084639028245876"></trkpt>
      <trkpt lat="43.2560855252685" lon="-4.084228613229004"></trkpt>
      <trkpt lat="43.25590357668554" lon="-4.083692479468278"></trkpt>
      <trkpt lat="43.25595796004743" lon="-4.083266158514948"></trkpt>
      <trkpt lat="43.2558010968765" lon="-4.08282933097186"></trkpt>
      <trkpt lat="43.25544256356282" lon="-4.081923744071871"></trkpt>
      <trkpt lat="43.25502354056565" lon="-4.081688579077953"></trkpt>
      <trkpt lat="43.25377712899057" lon="-4.08214670232698"></trkpt>
      <trkpt lat="43.2529606527012" lon="-4.082617247925276"></trkpt>
      <trkpt lat="43.25314761291344" lon="-4.081843788234981"></trkpt>
      <trkpt lat="43.25279349026585" lon="-4.079846318575983"></trkpt>
      <trkpt lat="43.25254534701676" lon="-4.078682404955581"></trkpt>
      <trkpt lat="43.25255560347489" lon="-4.078074025189995"></trkpt>
      <trkpt lat="43.25258500316092" lon="-4.077853735172408"></trkpt>
      <trkpt lat="43.25290846793352" lon="-4.077071880990601"></trkpt>
      <trkpt lat="43.25291197775756" lon="-4.077072470947284"></trkpt>
      <trkpt lat="43.25432215767093" lon="-4.076059767870467"></trkpt>
      <trkpt lat="43.2546935290428" lon="-4.075722339585154"></trkpt>
      <trkpt lat="43.25522341352684" lon="-4.075744792396434"></trkpt>
      <trkpt lat="43.25530672105091" lon="-4.07529129976128"></trkpt>
      <trkpt lat="43.25487402180525" lon="-4.07491697545261"></trkpt>
      <trkpt lat="43.25487952222897" lon="-4.07465954651944"></trkpt>
      <trkpt lat="43.25544707590138" lon="-4.074549601222204"></trkpt>
      <trkpt lat="43.25569133523706" lon="-4.073967267047273"></trkpt>
      <trkpt lat="43.2570854487161" lon="-4.07342260699869"></trkpt>
      <trkpt lat="43.25736436462657" lon="-4.073025289013028"></trkpt>
      <trkpt lat="43.25832961526223" lon="-4.072773338098896"></trkpt>
      <trkpt lat="43.25852187101855" lon="-4.073237182202512"></trkpt>
      <trkpt lat="43.25902893368749" lon="-4.073059167535716"></trkpt>
      <trkpt lat="43.25968444255855" lon="-4.073489151803336"></trkpt>
      <trkpt lat="43.25975234432481" lon="-4.073374324645824"></trkpt>
      <trkpt lat="43.25972754884338" lon="-4.073181696893315"></trkpt>
      <trkpt lat="43.25960408309534" lon="-4.072974045850495"></trkpt>
      <trkpt lat="43.25964213592819" lon="-4.072879060146892"></trkpt>
      <trkpt lat="43.25964571090293" lon="-4.072878864132158"></trkpt>
      <trkpt lat="43.25996599178436" lon="-4.072817440995491"></trkpt>
      <trkpt lat="43.2601666315076" lon="-4.072738339585749"></trkpt>
      <trkpt lat="43.26022996465915" lon="-4.072669124234888"></trkpt>
      <trkpt lat="43.26023057229276" lon="-4.072662004106101"></trkpt>
      <trkpt lat="43.26034049273083" lon="-4.072088208905518"></trkpt>
      <trkpt lat="43.26010158127781" lon="-4.071887756244998"></trkpt>
      <trkpt lat="43.26008367775042" lon="-4.071882247730333"></trkpt>
      <trkpt lat="43.25962038974802" lon="-4.071867283308062"></trkpt>
      <trkpt lat="43.25960210185988" lon="-4.071867348326633"></trkpt>
      <trkpt lat="43.25958876468535" lon="-4.071863746909478"></trkpt>
      <trkpt lat="43.25935179243609" lon="-4.071749621922137"></trkpt>
      <trkpt lat="43.25933084729481" lon="-4.071193068459022"></trkpt>
      <trkpt lat="43.25933257621079" lon="-4.071179032728393"></trkpt>
      <trkpt lat="43.25935108821897" lon="-4.070688528957374"></trkpt>
      <trkpt lat="43.25935824975977" lon="-4.069979849211117"></trkpt>
      <trkpt lat="43.25879930860082" lon="-4.069990877344304"></trkpt>
      <trkpt lat="43.25879078060748" lon="-4.069987868924031"></trkpt>
      <trkpt lat="43.25823672365751" lon="-4.069979830331759"></trkpt>
      <trkpt lat="43.25779049288982" lon="-4.069968206850412"></trkpt>
      <trkpt lat="43.25775001333947" lon="-4.069957856257989"></trkpt>
      <trkpt lat="43.25728857775988" lon="-4.069882050730183"></trkpt>
      <trkpt lat="43.25727498347812" lon="-4.069876344413305"></trkpt>
      <trkpt lat="43.25686847109004" lon="-4.069770013110262"></trkpt>
      <trkpt lat="43.25664617140804" lon="-4.069572143626025"></trkpt>
      <trkpt lat="43.25663240655785" lon="-4.069551033181692"></trkpt>
      <trkpt lat="43.25639512572982" lon="-4.069273404150428"></trkpt>
      <trkpt lat="43.25600307791994" lon="-4.06997143503688"></trkpt>
      <trkpt lat="43.25599853663421" lon="-4.069968338419438"></trkpt>
      <trkpt lat="43.25566805981819" lon="-4.069884074615783"></trkpt>
      <trkpt lat="43.25534590608126" lon="-4.069453871547294"></trkpt>
      <trkpt lat="43.25492968831826" lon="-4.069775646222109"></trkpt>
      <trkpt lat="43.25452267186273" lon="-4.069941041497035"></trkpt>
      <trkpt lat="43.25405176410931" lon="-4.070284570457253"></trkpt>
      <trkpt lat="43.25373863556973" lon="-4.07046532193274"></trkpt>
      <trkpt lat="43.25307542342795" lon="-4.070555842385773"></trkpt>
      <trkpt lat="43.25297404153123" lon="-4.070677434220155"></trkpt>
      <trkpt lat="43.25294133640446" lon="-4.070831684743069"></trkpt>
      <trkpt lat="43.25275583391151" lon="-4.070884982701855"></trkpt>
      <trkpt lat="43.25246353523526" lon="-4.070837035885258"></trkpt>
      <trkpt lat="43.25234253144734" lon="-4.070526460321112"></trkpt>
      <trkpt lat="43.25233454197949" lon="-4.070520850220948"></trkpt>
      <trkpt lat="43.25215348969121" lon="-4.070348484008814"></trkpt>
      <trkpt lat="43.25202149316732" lon="-4.070370569556595"></trkpt>
      <trkpt lat="43.25192214720636" lon="-4.070321002535787"></trkpt>
      <trkpt lat="43.25168977237931" lon="-4.070002443551576"></trkpt>
      <trkpt lat="43.25167542645698" lon="-4.069990111896758"></trkpt>
      <trkpt lat="43.25039695506211" lon="-4.068924933575792"></trkpt>
      <trkpt lat="43.24989261702402" lon="-4.068352262941618"></trkpt>
      <trkpt lat="43.24775001552614" lon="-4.066691418121895"></trkpt>
      <trkpt lat="43.24699251150615" lon="-4.066017931563502"></trkpt>
      <trkpt lat="43.24611707104931" lon="-4.065218521150527"></trkpt>
      <trkpt lat="43.24547012750019" lon="-4.064515335596641"></trkpt>
      <trkpt lat="43.24545735780447" lon="-4.064500920173955"></trkpt>
      <trkpt lat="43.244987225957" lon="-4.063857222648114"></trkpt>
      <trkpt lat="43.24498047506938" lon="-4.0638461963737"></trkpt>
      <trkpt lat="43.24450940092096" lon="-4.063217357891085"></trkpt>
      <trkpt lat="43.24450096956316" lon="-4.063202514402876"></trkpt>
      <trkpt lat="43.24423026521669" lon="-4.062912981752371"></trkpt>
      <trkpt lat="43.2439943525277" lon="-4.062714061786062"></trkpt>
      <trkpt lat="43.24373807482249" lon="-4.06244356230245"></trkpt>
      <trkpt lat="43.24388200179273" lon="-4.062110674903864"></trkpt>
      <trkpt lat="43.24415090898339" lon="-4.061932977285504"></trkpt>
      <trkpt lat="43.24464062232038" lon="-4.061912382761098"></trkpt>
      <trkpt lat="43.24504313774018" lon="-4.062035848844046"></trkpt>
      <trkpt lat="43.24549436953791" lon="-4.062039178198617"></trkpt>
      <trkpt lat="43.24567581248896" lon="-4.06192228012081"></trkpt>
      <trkpt lat="43.24550352688756" lon="-4.061252841613062"></trkpt>
      <trkpt lat="43.24550316637132" lon="-4.06124061573772"></trkpt>
      <trkpt lat="43.24534682758782" lon="-4.060684167383267"></trkpt>
      <trkpt lat="43.24529092910949" lon="-4.060193393527701"></trkpt>
      <trkpt lat="43.24529640678497" lon="-4.0601568511594"></trkpt>
      <trkpt lat="43.24517809998614" lon="-4.059515576898717"></trkpt>
      <trkpt lat="43.24516978202085" lon="-4.059501661599604"></trkpt>
      <trkpt lat="43.24494819609764" lon="-4.05919841269048"></trkpt>
      <trkpt lat="43.24479012198988" lon="-4.058997575719417"></trkpt>
      <trkpt lat="43.2447164774846" lon="-4.058729925563967"></trkpt>
      <trkpt lat="43.24463309558129" lon="-4.058034364080926"></trkpt>
      <trkpt lat="43.24400219296585" lon="-4.056190786191638"></trkpt>
      <trkpt lat="43.2436365841207" lon="-4.055083219362698"></trkpt>
      <trkpt lat="43.24314811702545" lon="-4.054310155500272"></trkpt>
      <trkpt lat="43.24250292922201" lon="-4.052801305743795"></trkpt>
      <trkpt lat="43.24149220883896" lon="-4.052278151752118"></trkpt>
      <trkpt lat="43.24096404812981" lon="-4.052303396569974"></trkpt>
      <trkpt lat="43.24019749568869" lon="-4.052690139894799"></trkpt>
      <trkpt lat="43.23965703272926" lon="-4.052862454020407"></trkpt>
      <trkpt lat="43.2390266915497" lon="-4.052330586891488"></trkpt>
      <trkpt lat="43.2379548232277" lon="-4.05205125007633"></trkpt>
      <trkpt lat="43.2374214518399" lon="-4.051491339966903"></trkpt>
      <trkpt lat="43.2370422470119" lon="-4.050740089364247"></trkpt>
      <trkpt lat="43.23662638663392" lon="-4.050492721413843"></trkpt>
      <trkpt lat="43.23575552056435" lon="-4.049272111412"></trkpt>
      <trkpt lat="43.23414208201675" lon="-4.048850817153891"></trkpt>
      <trkpt lat="43.23363289450093" lon="-4.047869098887351"></trkpt>
      <trkpt lat="43.23203538985832" lon="-4.046616285666447"></trkpt>
      <trkpt lat="43.23178869244196" lon="-4.045872361029544"></trkpt>
      <trkpt lat="43.23107508996347" lon="-4.045154541150327"></trkpt>
      <trkpt lat="43.23068899576862" lon="-4.044591926595952"></trkpt>
      <trkpt lat="43.22981067101011" lon="-4.043889846226821"></trkpt>
      <trkpt lat="43.22965276254926" lon="-4.04423829359615"></trkpt>
      <trkpt lat="43.22897747708127" lon="-4.044368922913493"></trkpt>
      <trkpt lat="43.22810538216881" lon="-4.04390578614121"></trkpt>
      <trkpt lat="43.22745934456717" lon="-4.042401469919779"></trkpt>
      <trkpt lat="43.22685962638024" lon="-4.041758432734101"></trkpt>
      <trkpt lat="43.22687754589698" lon="-4.043009713121995"></trkpt>
      <trkpt lat="43.22665835751494" lon="-4.043503621285563"></trkpt>
      <trkpt lat="43.22593814798623" lon="-4.043823723767473"></trkpt>
      <trkpt lat="43.22476147374108" lon="-4.04404365703627"></trkpt>
      <trkpt lat="43.22436418061518" lon="-4.043514683506832"></trkpt>
    </trkseg>
  </trk>
</gpx>