<?xml version="1.0" encoding="UTF-8"?>
<gpx version="1.1" creator="Rutas Jard Enduro" xmlns="http://www.topografix.com/GPX/1/1">
  <trk>
    <name>Lunes_37km</name>
    <trkseg>
      <trkpt lat="43.205563644" lon="-4.04690418"></trkpt>
      <trkpt lat="43.205566311" lon="-4.046998576"></trkpt>
      <trkpt lat="43.205600369" lon="-4.047319361"></trkpt>
      <trkpt lat="43.205600595" lon="-4.047334429"></trkpt>
      <trkpt lat="43.205583408" lon="-4.047617753"></trkpt>
      <trkpt lat="43.205507209" lon="-4.047958212"></trkpt>
      <trkpt lat="43.20550099" lon="-4.04797704"></trkpt>
      <trkpt lat="43.205412402" lon="-4.048341727"></trkpt>
      <trkpt lat="43.20554023" lon="-4.048656687"></trkpt>
      <trkpt lat="43.205670475" lon="-4.048885756"></trkpt>
      <trkpt lat="43.205777672" lon="-4.048966511"></trkpt>
      <trkpt lat="43.205781583" lon="-4.048971793"></trkpt>
      <trkpt lat="43.205972931" lon="-4.049210921"></trkpt>
      <trkpt lat="43.206276302" lon="-4.049587693"></trkpt>
      <trkpt lat="43.206296479" lon="-4.049604123"></trkpt>
      <trkpt lat="43.206322749" lon="-4.049629709"></trkpt>
      <trkpt lat="43.206613271" lon="-4.049909724"></trkpt>
      <trkpt lat="43.206628167" lon="-4.049925193"></trkpt>
      <trkpt lat="43.206652192" lon="-4.049942193"></trkpt>
      <trkpt lat="43.206981753" lon="-4.050266691"></trkpt>
      <trkpt lat="43.206999634" lon="-4.050280726"></trkpt>
      <trkpt lat="43.207039824" lon="-4.050309846"></trkpt>
      <trkpt lat="43.207251926" lon="-4.050569975"></trkpt>
      <trkpt lat="43.207269972" lon="-4.050596196"></trkpt>
      <trkpt lat="43.207547402" lon="-4.050976508"></trkpt>
      <trkpt lat="43.207571596" lon="-4.050999625"></trkpt>
      <trkpt lat="43.207786365" lon="-4.051208605"></trkpt>
      <trkpt lat="43.208005282" lon="-4.051385931"></trkpt>
      <trkpt lat="43.208040288" lon="-4.051406704"></trkpt>
      <trkpt lat="43.208045455" lon="-4.051406742"></trkpt>
      <trkpt lat="43.208331645" lon="-4.051530157"></trkpt>
      <trkpt lat="43.208356395" lon="-4.051542054"></trkpt>
      <trkpt lat="43.208370018" lon="-4.051549573"></trkpt>
      <trkpt lat="43.208576908" lon="-4.05154404"></trkpt>
      <trkpt lat="43.208602283" lon="-4.051537372"></trkpt>
      <trkpt lat="43.208619951" lon="-4.051530601"></trkpt>
      <trkpt lat="43.208729956" lon="-4.051417372"></trkpt>
      <trkpt lat="43.208737647" lon="-4.051392598"></trkpt>
      <trkpt lat="43.208743209" lon="-4.051371814"></trkpt>
      <trkpt lat="43.208785242" lon="-4.05111043"></trkpt>
      <trkpt lat="43.208788855" lon="-4.051092629"></trkpt>
      <trkpt lat="43.208792305" lon="-4.051070875"></trkpt>
      <trkpt lat="43.20888478" lon="-4.050758807"></trkpt>
      <trkpt lat="43.208902424" lon="-4.050734662"></trkpt>
      <trkpt lat="43.209071599" lon="-4.050674202"></trkpt>
      <trkpt lat="43.209097969" lon="-4.050679984"></trkpt>
      <trkpt lat="43.209183751" lon="-4.050803873"></trkpt>
      <trkpt lat="43.209193969" lon="-4.050829434"></trkpt>
      <trkpt lat="43.209221296" lon="-4.051058102"></trkpt>
      <trkpt lat="43.209240326" lon="-4.051290985"></trkpt>
      <trkpt lat="43.209375218" lon="-4.052365409"></trkpt>
      <trkpt lat="43.209491121" lon="-4.053237857"></trkpt>
      <trkpt lat="43.209712806" lon="-4.054226649"></trkpt>
      <trkpt lat="43.209734949" lon="-4.054275904"></trkpt>
      <trkpt lat="43.210019838" lon="-4.054837976"></trkpt>
      <trkpt lat="43.210073308" lon="-4.05491695"></trkpt>
      <trkpt lat="43.210619318" lon="-4.055375736"></trkpt>
      <trkpt lat="43.21068667" lon="-4.055455149"></trkpt>
      <trkpt lat="43.211132925" lon="-4.055813713"></trkpt>
      <trkpt lat="43.211205387" lon="-4.055837621"></trkpt>
      <trkpt lat="43.211463418" lon="-4.055691526"></trkpt>
      <trkpt lat="43.21150225" lon="-4.055656216"></trkpt>
      <trkpt lat="43.21151783" lon="-4.055644496"></trkpt>
      <trkpt lat="43.212102313" lon="-4.054876621"></trkpt>
      <trkpt lat="43.212110529" lon="-4.054862807"></trkpt>
      <trkpt lat="43.212504863" lon="-4.053758609"></trkpt>
      <trkpt lat="43.213200912" lon="-4.052988492"></trkpt>
      <trkpt lat="43.213518144" lon="-4.052575782"></trkpt>
      <trkpt lat="43.213737784" lon="-4.051960357"></trkpt>
      <trkpt lat="43.213755408" lon="-4.05191997"></trkpt>
      <trkpt lat="43.213784486" lon="-4.051839629"></trkpt>
      <trkpt lat="43.214422279" lon="-4.051118562"></trkpt>
      <trkpt lat="43.214489349" lon="-4.051058623"></trkpt>
      <trkpt lat="43.214502722" lon="-4.051046195"></trkpt>
      <trkpt lat="43.215109744" lon="-4.050094072"></trkpt>
      <trkpt lat="43.21535047" lon="-4.050288547"></trkpt>
      <trkpt lat="43.215379143" lon="-4.050308598"></trkpt>
      <trkpt lat="43.215542414" lon="-4.050722607"></trkpt>
      <trkpt lat="43.215542263" lon="-4.050734256"></trkpt>
      <trkpt lat="43.215627661" lon="-4.051428635"></trkpt>
      <trkpt lat="43.215634123" lon="-4.051474495"></trkpt>
      <trkpt lat="43.215706732" lon="-4.052107255"></trkpt>
      <trkpt lat="43.215712022" lon="-4.052179731"></trkpt>
      <trkpt lat="43.215701032" lon="-4.052726793"></trkpt>
      <trkpt lat="43.215713551" lon="-4.052767195"></trkpt>
      <trkpt lat="43.21572253" lon="-4.05332155"></trkpt>
      <trkpt lat="43.21588142" lon="-4.053794555"></trkpt>
      <trkpt lat="43.21589341" lon="-4.053818596"></trkpt>
      <trkpt lat="43.216044609" lon="-4.054684782"></trkpt>
      <trkpt lat="43.21631829" lon="-4.055579368"></trkpt>
      <trkpt lat="43.216322945" lon="-4.055607253"></trkpt>
      <trkpt lat="43.216469013" lon="-4.056365085"></trkpt>
      <trkpt lat="43.216468392" lon="-4.056382192"></trkpt>
      <trkpt lat="43.216506224" lon="-4.056990651"></trkpt>
      <trkpt lat="43.216500627" lon="-4.057469033"></trkpt>
      <trkpt lat="43.216543462" lon="-4.05779299"></trkpt>
      <trkpt lat="43.216699207" lon="-4.058015921"></trkpt>
      <trkpt lat="43.216815571" lon="-4.05780952"></trkpt>
      <trkpt lat="43.216818938" lon="-4.057796306"></trkpt>
      <trkpt lat="43.216935844" lon="-4.057518021"></trkpt>
      <trkpt lat="43.216946398" lon="-4.057500689"></trkpt>
      <trkpt lat="43.217103828" lon="-4.057126923"></trkpt>
      <trkpt lat="43.2171213" lon="-4.057100052"></trkpt>
      <trkpt lat="43.217378309" lon="-4.056813202"></trkpt>
      <trkpt lat="43.217417181" lon="-4.056778062"></trkpt>
      <trkpt lat="43.217701326" lon="-4.056539352"></trkpt>
      <trkpt lat="43.217738957" lon="-4.056491801"></trkpt>
      <trkpt lat="43.217811503" lon="-4.056167493"></trkpt>
      <trkpt lat="43.217924834" lon="-4.055446101"></trkpt>
      <trkpt lat="43.217926823" lon="-4.055416377"></trkpt>
      <trkpt lat="43.218015064" lon="-4.054923268"></trkpt>
      <trkpt lat="43.218022542" lon="-4.054862733"></trkpt>
      <trkpt lat="43.218149571" lon="-4.05424474"></trkpt>
      <trkpt lat="43.21815254" lon="-4.054217726"></trkpt>
      <trkpt lat="43.21816521" lon="-4.054174171"></trkpt>
      <trkpt lat="43.218265139" lon="-4.053334225"></trkpt>
      <trkpt lat="43.218560655" lon="-4.052137712"></trkpt>
      <trkpt lat="43.218659434" lon="-4.051689641"></trkpt>
      <trkpt lat="43.218663979" lon="-4.051620685"></trkpt>
      <trkpt lat="43.218808871" lon="-4.051053084"></trkpt>
      <trkpt lat="43.218841822" lon="-4.050979023"></trkpt>
      <trkpt lat="43.218848913" lon="-4.050956777"></trkpt>
      <trkpt lat="43.219027458" lon="-4.050459153"></trkpt>
      <trkpt lat="43.219040036" lon="-4.050409353"></trkpt>
      <trkpt lat="43.219149124" lon="-4.049647062"></trkpt>
      <trkpt lat="43.219152487" lon="-4.049590014"></trkpt>
      <trkpt lat="43.219350959" lon="-4.048840941"></trkpt>
      <trkpt lat="43.219523821" lon="-4.048948305"></trkpt>
      <trkpt lat="43.219687574" lon="-4.049272585"></trkpt>
      <trkpt lat="43.219712591" lon="-4.049310696"></trkpt>
      <trkpt lat="43.219931199" lon="-4.04979935"></trkpt>
      <trkpt lat="43.219940948" lon="-4.050268527"></trkpt>
      <trkpt lat="43.219943905" lon="-4.05030656"></trkpt>
      <trkpt lat="43.22004854" lon="-4.050811983"></trkpt>
      <trkpt lat="43.220060668" lon="-4.05084255"></trkpt>
      <trkpt lat="43.220046628" lon="-4.051534396"></trkpt>
      <trkpt lat="43.220045271" lon="-4.051576269"></trkpt>
      <trkpt lat="43.220026242" lon="-4.052177612"></trkpt>
      <trkpt lat="43.220198586" lon="-4.052956256"></trkpt>
      <trkpt lat="43.220304701" lon="-4.053487708"></trkpt>
      <trkpt lat="43.220310695" lon="-4.053507978"></trkpt>
      <trkpt lat="43.220387459" lon="-4.053922542"></trkpt>
      <trkpt lat="43.220313761" lon="-4.054298802"></trkpt>
      <trkpt lat="43.220306122" lon="-4.054315495"></trkpt>
      <trkpt lat="43.220109146" lon="-4.054553759"></trkpt>
      <trkpt lat="43.220103179" lon="-4.054558283"></trkpt>
      <trkpt lat="43.219809112" lon="-4.054892703"></trkpt>
      <trkpt lat="43.21978819" lon="-4.054906366"></trkpt>
      <trkpt lat="43.219682526" lon="-4.055286673"></trkpt>
      <trkpt lat="43.21987253" lon="-4.05526022"></trkpt>
      <trkpt lat="43.219912373" lon="-4.055216326"></trkpt>
      <trkpt lat="43.22008786" lon="-4.054814825"></trkpt>
      <trkpt lat="43.220109611" lon="-4.05478756"></trkpt>
      <trkpt lat="43.220365502" lon="-4.054486079"></trkpt>
      <trkpt lat="43.220498353" lon="-4.054823623"></trkpt>
      <trkpt lat="43.220591788" lon="-4.054646414"></trkpt>
      <trkpt lat="43.220672019" lon="-4.054252282"></trkpt>
      <trkpt lat="43.220674506" lon="-4.054221734"></trkpt>
      <trkpt lat="43.220706581" lon="-4.053848405"></trkpt>
      <trkpt lat="43.220961592" lon="-4.052875016"></trkpt>
      <trkpt lat="43.221121335" lon="-4.052559867"></trkpt>
      <trkpt lat="43.221140188" lon="-4.052541432"></trkpt>
      <trkpt lat="43.221145737" lon="-4.052528032"></trkpt>
      <trkpt lat="43.22133356" lon="-4.051975191"></trkpt>
      <trkpt lat="43.221663569" lon="-4.05069716"></trkpt>
      <trkpt lat="43.221744812" lon="-4.050548353"></trkpt>
      <trkpt lat="43.22196281" lon="-4.050262547"></trkpt>
      <trkpt lat="43.221969825" lon="-4.0502228"></trkpt>
      <trkpt lat="43.22197178" lon="-4.050215184"></trkpt>
      <trkpt lat="43.222221305" lon="-4.049982537"></trkpt>
      <trkpt lat="43.222538274" lon="-4.049699777"></trkpt>
      <trkpt lat="43.223016019" lon="-4.049137365"></trkpt>
      <trkpt lat="43.223213002" lon="-4.049010738"></trkpt>
      <trkpt lat="43.223420984" lon="-4.048778203"></trkpt>
      <trkpt lat="43.223432469" lon="-4.048762754"></trkpt>
      <trkpt lat="43.223440466" lon="-4.048748367"></trkpt>
      <trkpt lat="43.223661458" lon="-4.048568539"></trkpt>
      <trkpt lat="43.223674755" lon="-4.048559747"></trkpt>
      <trkpt lat="43.223833102" lon="-4.048331023"></trkpt>
      <trkpt lat="43.223857971" lon="-4.048299311"></trkpt>
      <trkpt lat="43.224100056" lon="-4.048104221"></trkpt>
      <trkpt lat="43.224127427" lon="-4.048087087"></trkpt>
      <trkpt lat="43.22417691" lon="-4.04784397"></trkpt>
      <trkpt lat="43.224324751" lon="-4.047296491"></trkpt>
      <trkpt lat="43.224432334" lon="-4.04710944"></trkpt>
      <trkpt lat="43.224445793" lon="-4.047089703"></trkpt>
      <trkpt lat="43.224574302" lon="-4.046710704"></trkpt>
      <trkpt lat="43.224580273" lon="-4.046684196"></trkpt>
      <trkpt lat="43.224566373" lon="-4.04627769"></trkpt>
      <trkpt lat="43.22467812" lon="-4.045830709"></trkpt>
      <trkpt lat="43.224789751" lon="-4.045651427"></trkpt>
      <trkpt lat="43.224763033" lon="-4.045366779"></trkpt>
      <trkpt lat="43.224604194" lon="-4.04498711"></trkpt>
      <trkpt lat="43.22438223" lon="-4.044256814"></trkpt>
      <trkpt lat="43.224292522" lon="-4.043966125"></trkpt>
      <trkpt lat="43.224291384" lon="-4.043951428"></trkpt>
      <trkpt lat="43.224162528" lon="-4.043574795"></trkpt>
      <trkpt lat="43.224161044" lon="-4.043557706"></trkpt>
      <trkpt lat="43.224013911" lon="-4.043018926"></trkpt>
      <trkpt lat="43.223925603" lon="-4.04261873"></trkpt>
      <trkpt lat="43.223918032" lon="-4.042202058"></trkpt>
      <trkpt lat="43.223802525" lon="-4.041697681"></trkpt>
      <trkpt lat="43.223717547" lon="-4.041381024"></trkpt>
      <trkpt lat="43.223372678" lon="-4.041153841"></trkpt>
      <trkpt lat="43.223356172" lon="-4.041131091"></trkpt>
      <trkpt lat="43.223150166" lon="-4.040666259"></trkpt>
      <trkpt lat="43.223121084" lon="-4.040597372"></trkpt>
      <trkpt lat="43.222903198" lon="-4.040349411"></trkpt>
      <trkpt lat="43.222871888" lon="-4.040333389"></trkpt>
      <trkpt lat="43.222596728" lon="-4.040029681"></trkpt>
      <trkpt lat="43.222576855" lon="-4.03999312"></trkpt>
      <trkpt lat="43.222215629" lon="-4.039743528"></trkpt>
      <trkpt lat="43.222189541" lon="-4.039722364"></trkpt>
      <trkpt lat="43.22193786" lon="-4.039476876"></trkpt>
      <trkpt lat="43.221918554" lon="-4.039452993"></trkpt>
      <trkpt lat="43.221867033" lon="-4.039099801"></trkpt>
      <trkpt lat="43.221952491" lon="-4.038575994"></trkpt>
      <trkpt lat="43.221956827" lon="-4.038547861"></trkpt>
      <trkpt lat="43.221893104" lon="-4.037998363"></trkpt>
      <trkpt lat="43.221886833" lon="-4.03795377"></trkpt>
      <trkpt lat="43.221669913" lon="-4.03766512"></trkpt>
      <trkpt lat="43.221124796" lon="-4.037353209"></trkpt>
      <trkpt lat="43.22091452" lon="-4.037143591"></trkpt>
      <trkpt lat="43.220865632" lon="-4.036746139"></trkpt>
      <trkpt lat="43.220644862" lon="-4.035639955"></trkpt>
      <trkpt lat="43.220387694" lon="-4.034661106"></trkpt>
      <trkpt lat="43.220220731" lon="-4.033606819"></trkpt>
      <trkpt lat="43.219848221" lon="-4.031969241"></trkpt>
      <trkpt lat="43.219442616" lon="-4.030561466"></trkpt>
      <trkpt lat="43.219615777" lon="-4.029312201"></trkpt>
      <trkpt lat="43.219672357" lon="-4.027896303"></trkpt>
      <trkpt lat="43.220393429" lon="-4.026741256"></trkpt>
      <trkpt lat="43.221486084" lon="-4.024950667"></trkpt>
      <trkpt lat="43.222728255" lon="-4.023723541"></trkpt>
      <trkpt lat="43.222828098" lon="-4.023652866"></trkpt>
      <trkpt lat="43.224203488" lon="-4.02238014"></trkpt>
      <trkpt lat="43.224269045" lon="-4.022340326"></trkpt>
      <trkpt lat="43.224309108" lon="-4.022317385"></trkpt>
      <trkpt lat="43.225768422" lon="-4.021175375"></trkpt>
      <trkpt lat="43.225810076" lon="-4.021156574"></trkpt>
      <trkpt lat="43.227171563" lon="-4.019714438"></trkpt>
      <trkpt lat="43.227437796" lon="-4.019823064"></trkpt>
      <trkpt lat="43.228007015" lon="-4.020415763"></trkpt>
      <trkpt lat="43.228724623" lon="-4.021152835"></trkpt>
      <trkpt lat="43.228770039" lon="-4.021194157"></trkpt>
      <trkpt lat="43.22933293" lon="-4.021754991"></trkpt>
      <trkpt lat="43.229418857" lon="-4.021832141"></trkpt>
      <trkpt lat="43.230159194" lon="-4.022482779"></trkpt>
      <trkpt lat="43.230236973" lon="-4.022547928"></trkpt>
      <trkpt lat="43.230680036" lon="-4.023216992"></trkpt>
      <trkpt lat="43.230729483" lon="-4.023318139"></trkpt>
      <trkpt lat="43.230746091" lon="-4.023364445"></trkpt>
      <trkpt lat="43.231140289" lon="-4.023859839"></trkpt>
      <trkpt lat="43.231836038" lon="-4.024619528"></trkpt>
      <trkpt lat="43.231891342" lon="-4.02466784"></trkpt>
      <trkpt lat="43.2328876" lon="-4.025032775"></trkpt>
      <trkpt lat="43.233134547" lon="-4.025041153"></trkpt>
      <trkpt lat="43.233233299" lon="-4.025026248"></trkpt>
      <trkpt lat="43.233728279" lon="-4.025178972"></trkpt>
      <trkpt lat="43.233742066" lon="-4.025186734"></trkpt>
      <trkpt lat="43.233999711" lon="-4.026142363"></trkpt>
      <trkpt lat="43.233965304" lon="-4.02677809"></trkpt>
      <trkpt lat="43.233969846" lon="-4.026823018"></trkpt>
      <trkpt lat="43.234014229" lon="-4.027391015"></trkpt>
      <trkpt lat="43.233654597" lon="-4.027319543"></trkpt>
      <trkpt lat="43.233364553" lon="-4.026972009"></trkpt>
      <trkpt lat="43.233324933" lon="-4.026924174"></trkpt>
      <trkpt lat="43.232837513" lon="-4.026833912"></trkpt>
      <trkpt lat="43.232694048" lon="-4.02712269"></trkpt>
      <trkpt lat="43.23234622" lon="-4.02754193"></trkpt>
      <trkpt lat="43.232304575" lon="-4.027584416"></trkpt>
      <trkpt lat="43.231911603" lon="-4.027961468"></trkpt>
      <trkpt lat="43.231888748" lon="-4.02799263"></trkpt>
      <trkpt lat="43.231461643" lon="-4.028493936"></trkpt>
      <trkpt lat="43.231410939" lon="-4.028519065"></trkpt>
      <trkpt lat="43.230924027" lon="-4.029030933"></trkpt>
      <trkpt lat="43.231059684" lon="-4.029434592"></trkpt>
      <trkpt lat="43.231310268" lon="-4.029839241"></trkpt>
      <trkpt lat="43.231711783" lon="-4.030159575"></trkpt>
      <trkpt lat="43.232177762" lon="-4.030712336"></trkpt>
      <trkpt lat="43.232227591" lon="-4.030763521"></trkpt>
      <trkpt lat="43.232664476" lon="-4.031216018"></trkpt>
      <trkpt lat="43.233190889" lon="-4.030321437"></trkpt>
      <trkpt lat="43.233401649" lon="-4.03080566"></trkpt>
      <trkpt lat="43.23351433" lon="-4.031188657"></trkpt>
      <trkpt lat="43.233657463" lon="-4.03195569"></trkpt>
      <trkpt lat="43.233683498" lon="-4.033047638"></trkpt>
      <trkpt lat="43.233590179" lon="-4.033506913"></trkpt>
      <trkpt lat="43.233571016" lon="-4.03355973"></trkpt>
      <trkpt lat="43.233503739" lon="-4.034130845"></trkpt>
      <trkpt lat="43.23350822" lon="-4.034184778"></trkpt>
      <trkpt lat="43.233211585" lon="-4.034865622"></trkpt>
      <trkpt lat="43.233169447" lon="-4.035401726"></trkpt>
      <trkpt lat="43.23311093" lon="-4.03623686"></trkpt>
      <trkpt lat="43.233244799" lon="-4.03709001"></trkpt>
      <trkpt lat="43.233585258" lon="-4.038526037"></trkpt>
      <trkpt lat="43.233588685" lon="-4.039506351"></trkpt>
      <trkpt lat="43.233588537" lon="-4.03954688"></trkpt>
      <trkpt lat="43.233682653" lon="-4.040217384"></trkpt>
      <trkpt lat="43.233690947" lon="-4.040228792"></trkpt>
      <trkpt lat="43.233900515" lon="-4.041065003"></trkpt>
      <trkpt lat="43.233907326" lon="-4.041136454"></trkpt>
      <trkpt lat="43.233918859" lon="-4.041192261"></trkpt>
      <trkpt lat="43.234226546" lon="-4.041948839"></trkpt>
      <trkpt lat="43.234682586" lon="-4.042354432"></trkpt>
      <trkpt lat="43.234749138" lon="-4.042411438"></trkpt>
      <trkpt lat="43.235005414" lon="-4.042568923"></trkpt>
      <trkpt lat="43.235487864" lon="-4.043193213"></trkpt>
      <trkpt lat="43.23551718" lon="-4.043244577"></trkpt>
      <trkpt lat="43.235967924" lon="-4.043793692"></trkpt>
      <trkpt lat="43.235998674" lon="-4.043810441"></trkpt>
      <trkpt lat="43.236463252" lon="-4.043900344"></trkpt>
      <trkpt lat="43.23655641" lon="-4.043895016"></trkpt>
      <trkpt lat="43.237057019" lon="-4.043723725"></trkpt>
      <trkpt lat="43.237113344" lon="-4.043696117"></trkpt>
      <trkpt lat="43.237500847" lon="-4.043334013"></trkpt>
      <trkpt lat="43.237534933" lon="-4.043289377"></trkpt>
      <trkpt lat="43.237675565" lon="-4.042903828"></trkpt>
      <trkpt lat="43.237681258" lon="-4.042877743"></trkpt>
      <trkpt lat="43.237550532" lon="-4.042418563"></trkpt>
      <trkpt lat="43.237559701" lon="-4.042371184"></trkpt>
      <trkpt lat="43.237857422" lon="-4.041937634"></trkpt>
      <trkpt lat="43.237891504" lon="-4.041881049"></trkpt>
      <trkpt lat="43.237658526" lon="-4.041524516"></trkpt>
      <trkpt lat="43.237646733" lon="-4.041487821"></trkpt>
      <trkpt lat="43.237734677" lon="-4.041303284"></trkpt>
      <trkpt lat="43.238008907" lon="-4.040917896"></trkpt>
      <trkpt lat="43.238030765" lon="-4.04089008"></trkpt>
      <trkpt lat="43.238057536" lon="-4.040855052"></trkpt>
      <trkpt lat="43.238048115" lon="-4.040404002"></trkpt>
      <trkpt lat="43.238046026" lon="-4.039868896"></trkpt>
      <trkpt lat="43.238377353" lon="-4.039943801"></trkpt>
      <trkpt lat="43.238412866" lon="-4.039963784"></trkpt>
      <trkpt lat="43.238583106" lon="-4.040164405"></trkpt>
      <trkpt lat="43.238884994" lon="-4.040694294"></trkpt>
      <trkpt lat="43.238927556" lon="-4.040751251"></trkpt>
      <trkpt lat="43.239260065" lon="-4.040959372"></trkpt>
      <trkpt lat="43.239308359" lon="-4.040976194"></trkpt>
      <trkpt lat="43.239353617" lon="-4.040999203"></trkpt>
      <trkpt lat="43.239481321" lon="-4.040895158"></trkpt>
      <trkpt lat="43.239491681" lon="-4.040860639"></trkpt>
      <trkpt lat="43.239706269" lon="-4.040279694"></trkpt>
      <trkpt lat="43.239731306" lon="-4.040207377"></trkpt>
      <trkpt lat="43.239729042" lon="-4.04017233"></trkpt>
      <trkpt lat="43.239659891" lon="-4.039722088"></trkpt>
      <trkpt lat="43.239655167" lon="-4.039692786"></trkpt>
      <trkpt lat="43.23928311" lon="-4.038927395"></trkpt>
      <trkpt lat="43.239720642" lon="-4.039275045"></trkpt>
      <trkpt lat="43.239971102" lon="-4.039595989"></trkpt>
      <trkpt lat="43.240393751" lon="-4.039995929"></trkpt>
      <trkpt lat="43.240426209" lon="-4.040014989"></trkpt>
      <trkpt lat="43.240567515" lon="-4.039991494"></trkpt>
      <trkpt lat="43.240577913" lon="-4.039991777"></trkpt>
      <trkpt lat="43.240752608" lon="-4.039528051"></trkpt>
      <trkpt lat="43.240768168" lon="-4.039460522"></trkpt>
      <trkpt lat="43.240873859" lon="-4.038956716"></trkpt>
      <trkpt lat="43.241094863" lon="-4.038663596"></trkpt>
      <trkpt lat="43.241103549" lon="-4.038663678"></trkpt>
      <trkpt lat="43.241317227" lon="-4.038257412"></trkpt>
      <trkpt lat="43.241597765" lon="-4.038074454"></trkpt>
      <trkpt lat="43.242088468" lon="-4.038199666"></trkpt>
      <trkpt lat="43.242562434" lon="-4.038620332"></trkpt>
      <trkpt lat="43.242594238" lon="-4.038653194"></trkpt>
      <trkpt lat="43.242881549" lon="-4.039217594"></trkpt>
      <trkpt lat="43.243203363" lon="-4.039701148"></trkpt>
      <trkpt lat="43.243217733" lon="-4.039718578"></trkpt>
      <trkpt lat="43.243482457" lon="-4.03982704"></trkpt>
      <trkpt lat="43.243546042" lon="-4.039860049"></trkpt>
      <trkpt lat="43.243631597" lon="-4.040220343"></trkpt>
      <trkpt lat="43.243500305" lon="-4.040930426"></trkpt>
      <trkpt lat="43.243715754" lon="-4.041655952"></trkpt>
      <trkpt lat="43.24373544" lon="-4.04170424"></trkpt>
      <trkpt lat="43.244091253" lon="-4.042076023"></trkpt>
      <trkpt lat="43.24412341" lon="-4.042097415"></trkpt>
      <trkpt lat="43.24414291" lon="-4.04210517"></trkpt>
      <trkpt lat="43.244478741" lon="-4.042161256"></trkpt>
      <trkpt lat="43.244530174" lon="-4.042169047"></trkpt>
      <trkpt lat="43.24481514" lon="-4.042193146"></trkpt>
      <trkpt lat="43.244853238" lon="-4.042209025"></trkpt>
      <trkpt lat="43.24519687" lon="-4.042380855"></trkpt>
      <trkpt lat="43.245224793" lon="-4.042412302"></trkpt>
      <trkpt lat="43.245252675" lon="-4.042323474"></trkpt>
      <trkpt lat="43.245194534" lon="-4.042038803"></trkpt>
      <trkpt lat="43.245000622" lon="-4.041677135"></trkpt>
      <trkpt lat="43.244990093" lon="-4.04166411"></trkpt>
      <trkpt lat="43.244578311" lon="-4.041277997"></trkpt>
      <trkpt lat="43.244560495" lon="-4.041256673"></trkpt>
      <trkpt lat="43.244331226" lon="-4.040894107"></trkpt>
      <trkpt lat="43.244359591" lon="-4.039842774"></trkpt>
      <trkpt lat="43.244340213" lon="-4.039179191"></trkpt>
      <trkpt lat="43.244355151" lon="-4.039103871"></trkpt>
      <trkpt lat="43.244354949" lon="-4.039077534"></trkpt>
      <trkpt lat="43.244048352" lon="-4.038543403"></trkpt>
      <trkpt lat="43.243655313" lon="-4.038506542"></trkpt>
      <trkpt lat="43.243458106" lon="-4.038378176"></trkpt>
      <trkpt lat="43.243300786" lon="-4.038020046"></trkpt>
      <trkpt lat="43.243125018" lon="-4.03749321"></trkpt>
      <trkpt lat="43.243091382" lon="-4.037444338"></trkpt>
      <trkpt lat="43.242986555" lon="-4.036945769"></trkpt>
      <trkpt lat="43.242984449" lon="-4.036887491"></trkpt>
      <trkpt lat="43.24311092" lon="-4.036607782"></trkpt>
      <trkpt lat="43.243342689" lon="-4.036834058"></trkpt>
      <trkpt lat="43.243367387" lon="-4.036862034"></trkpt>
      <trkpt lat="43.243664277" lon="-4.037200494"></trkpt>
      <trkpt lat="43.243691878" lon="-4.037233022"></trkpt>
      <trkpt lat="43.24381508" lon="-4.037237723"></trkpt>
      <trkpt lat="43.24377907" lon="-4.036852101"></trkpt>
      <trkpt lat="43.243712115" lon="-4.036414537"></trkpt>
      <trkpt lat="43.243709714" lon="-4.03637041"></trkpt>
      <trkpt lat="43.243734978" lon="-4.036024744"></trkpt>
      <trkpt lat="43.243740549" lon="-4.035989716"></trkpt>
      <trkpt lat="43.243848846" lon="-4.035761935"></trkpt>
      <trkpt lat="43.243861864" lon="-4.035406639"></trkpt>
      <trkpt lat="43.243859938" lon="-4.035360512"></trkpt>
      <trkpt lat="43.243829142" lon="-4.035244762"></trkpt>
      <trkpt lat="43.243838139" lon="-4.034720962"></trkpt>
      <trkpt lat="43.243845031" lon="-4.034685415"></trkpt>
      <trkpt lat="43.243626117" lon="-4.034299638"></trkpt>
      <trkpt lat="43.243613613" lon="-4.034280942"></trkpt>
      <trkpt lat="43.243337575" lon="-4.033835097"></trkpt>
      <trkpt lat="43.243032463" lon="-4.033331198"></trkpt>
      <trkpt lat="43.242669179" lon="-4.032743987"></trkpt>
      <trkpt lat="43.242231435" lon="-4.032095365"></trkpt>
      <trkpt lat="43.241760256" lon="-4.031578411"></trkpt>
      <trkpt lat="43.24144756" lon="-4.031116422"></trkpt>
      <trkpt lat="43.241503634" lon="-4.030958404"></trkpt>
      <trkpt lat="43.241568173" lon="-4.030655432"></trkpt>
      <trkpt lat="43.241855208" lon="-4.031078185"></trkpt>
      <trkpt lat="43.242109609" lon="-4.03142586"></trkpt>
      <trkpt lat="43.242129276" lon="-4.031428896"></trkpt>
      <trkpt lat="43.242541747" lon="-4.031661853"></trkpt>
      <trkpt lat="43.242551345" lon="-4.031663082"></trkpt>
      <trkpt lat="43.242979676" lon="-4.03166017"></trkpt>
      <trkpt lat="43.243037109" lon="-4.031657277"></trkpt>
      <trkpt lat="43.243470581" lon="-4.0317115"></trkpt>
      <trkpt lat="43.243487284" lon="-4.031713804"></trkpt>
      <trkpt lat="43.243933139" lon="-4.031788181"></trkpt>
      <trkpt lat="43.243972437" lon="-4.031777137"></trkpt>
      <trkpt lat="43.244206636" lon="-4.031816037"></trkpt>
      <trkpt lat="43.244375501" lon="-4.031154264"></trkpt>
      <trkpt lat="43.244354626" lon="-4.03111264"></trkpt>
      <trkpt lat="43.244195716" lon="-4.030722348"></trkpt>
      <trkpt lat="43.24417369" lon="-4.030670344"></trkpt>
      <trkpt lat="43.243983027" lon="-4.030221062"></trkpt>
      <trkpt lat="43.243525647" lon="-4.029662827"></trkpt>
      <trkpt lat="43.243512066" lon="-4.029648037"></trkpt>
      <trkpt lat="43.243110697" lon="-4.029215673"></trkpt>
      <trkpt lat="43.242634521" lon="-4.028824998"></trkpt>
      <trkpt lat="43.242533498" lon="-4.028755724"></trkpt>
      <trkpt lat="43.241942277" lon="-4.028339779"></trkpt>
      <trkpt lat="43.241880391" lon="-4.028317994"></trkpt>
      <trkpt lat="43.241292339" lon="-4.027459533"></trkpt>
      <trkpt lat="43.241260395" lon="-4.027420665"></trkpt>
      <trkpt lat="43.240737548" lon="-4.026891932"></trkpt>
      <trkpt lat="43.24085332" lon="-4.026457671"></trkpt>
      <trkpt lat="43.241172997" lon="-4.02539362"></trkpt>
      <trkpt lat="43.241439799" lon="-4.025034188"></trkpt>
      <trkpt lat="43.241472935" lon="-4.024998831"></trkpt>
      <trkpt lat="43.241531738" lon="-4.024915305"></trkpt>
      <trkpt lat="43.241882481" lon="-4.024246476"></trkpt>
      <trkpt lat="43.241906953" lon="-4.024199143"></trkpt>
      <trkpt lat="43.241920844" lon="-4.024148577"></trkpt>
      <trkpt lat="43.2420674" lon="-4.023632512"></trkpt>
      <trkpt lat="43.242097649" lon="-4.02353137"></trkpt>
      <trkpt lat="43.242106781" lon="-4.023501035"></trkpt>
      <trkpt lat="43.242132638" lon="-4.022731189"></trkpt>
      <trkpt lat="43.242118021" lon="-4.022645965"></trkpt>
      <trkpt lat="43.242103293" lon="-4.022606044"></trkpt>
      <trkpt lat="43.241938784" lon="-4.021947789"></trkpt>
      <trkpt lat="43.241935057" lon="-4.021910868"></trkpt>
      <trkpt lat="43.24164821" lon="-4.020795814"></trkpt>
      <trkpt lat="43.241614581" lon="-4.020667197"></trkpt>
      <trkpt lat="43.241620632" lon="-4.02063284"></trkpt>
      <trkpt lat="43.241692027" lon="-4.020191498"></trkpt>
      <trkpt lat="43.242113284" lon="-4.020471597"></trkpt>
      <trkpt lat="43.242397856" lon="-4.021133566"></trkpt>
      <trkpt lat="43.242673001" lon="-4.021580447"></trkpt>
      <trkpt lat="43.243251186" lon="-4.022066286"></trkpt>
      <trkpt lat="43.24344246" lon="-4.022639489"></trkpt>
      <trkpt lat="43.243703759" lon="-4.022729248"></trkpt>
      <trkpt lat="43.24385422" lon="-4.02295766"></trkpt>
      <trkpt lat="43.244166466" lon="-4.022899426"></trkpt>
      <trkpt lat="43.244647209" lon="-4.023056244"></trkpt>
      <trkpt lat="43.244666103" lon="-4.023055597"></trkpt>
      <trkpt lat="43.245080459" lon="-4.023264212"></trkpt>
      <trkpt lat="43.245108835" lon="-4.023287119"></trkpt>
      <trkpt lat="43.245437998" lon="-4.023639353"></trkpt>
      <trkpt lat="43.245491223" lon="-4.023673608"></trkpt>
      <trkpt lat="43.245671663" lon="-4.02355261"></trkpt>
      <trkpt lat="43.245920512" lon="-4.02356194"></trkpt>
      <trkpt lat="43.246096747" lon="-4.02375105"></trkpt>
      <trkpt lat="43.246256437" lon="-4.023977089"></trkpt>
      <trkpt lat="43.246234641" lon="-4.024428852"></trkpt>
      <trkpt lat="43.246225135" lon="-4.024455928"></trkpt>
      <trkpt lat="43.246121712" lon="-4.024804361"></trkpt>
      <trkpt lat="43.246285153" lon="-4.024962653"></trkpt>
      <trkpt lat="43.246660629" lon="-4.025057137"></trkpt>
      <trkpt lat="43.247148088" lon="-4.025119065"></trkpt>
      <trkpt lat="43.247177987" lon="-4.025129714"></trkpt>
      <trkpt lat="43.247647559" lon="-4.025346068"></trkpt>
      <trkpt lat="43.247668712" lon="-4.025353764"></trkpt>
      <trkpt lat="43.248029277" lon="-4.025480751"></trkpt>
      <trkpt lat="43.248058184" lon="-4.025497063"></trkpt>
      <trkpt lat="43.248314717" lon="-4.025683026"></trkpt>
      <trkpt lat="43.24835318" lon="-4.025693733"></trkpt>
      <trkpt lat="43.248633477" lon="-4.025877508"></trkpt>
      <trkpt lat="43.248734151" lon="-4.025771465"></trkpt>
      <trkpt lat="43.248861433" lon="-4.025542008"></trkpt>
      <trkpt lat="43.24887301" lon="-4.025524255"></trkpt>
      <trkpt lat="43.249137109" lon="-4.025140985"></trkpt>
      <trkpt lat="43.249321009" lon="-4.025043957"></trkpt>
      <trkpt lat="43.249340577" lon="-4.025033155"></trkpt>
      <trkpt lat="43.249572574" lon="-4.024956223"></trkpt>
      <trkpt lat="43.249614907" lon="-4.024935792"></trkpt>
      <trkpt lat="43.249620572" lon="-4.024932893"></trkpt>
      <trkpt lat="43.249712667" lon="-4.024826431"></trkpt>
      <trkpt lat="43.249722682" lon="-4.024804948"></trkpt>
      <trkpt lat="43.249731153" lon="-4.024787796"></trkpt>
      <trkpt lat="43.249893715" lon="-4.024319522"></trkpt>
      <trkpt lat="43.249903746" lon="-4.024298732"></trkpt>
      <trkpt lat="43.250065753" lon="-4.023878142"></trkpt>
      <trkpt lat="43.250085751" lon="-4.023823686"></trkpt>
      <trkpt lat="43.2500985" lon="-4.023790917"></trkpt>
      <trkpt lat="43.250182013" lon="-4.023658733"></trkpt>
      <trkpt lat="43.250280378" lon="-4.023835784"></trkpt>
      <trkpt lat="43.250248419" lon="-4.024154872"></trkpt>
      <trkpt lat="43.250237477" lon="-4.02417429"></trkpt>
      <trkpt lat="43.250230628" lon="-4.024350337"></trkpt>
      <trkpt lat="43.250171032" lon="-4.024613123"></trkpt>
      <trkpt lat="43.250356662" lon="-4.024681547"></trkpt>
      <trkpt lat="43.250371599" lon="-4.024683319"></trkpt>
      <trkpt lat="43.250383674" lon="-4.024689018"></trkpt>
      <trkpt lat="43.250560097" lon="-4.024724238"></trkpt>
      <trkpt lat="43.250587384" lon="-4.024726248"></trkpt>
      <trkpt lat="43.250606037" lon="-4.024729342"></trkpt>
      <trkpt lat="43.250799943" lon="-4.024815885"></trkpt>
      <trkpt lat="43.250823478" lon="-4.024823874"></trkpt>
      <trkpt lat="43.250831783" lon="-4.02482653"></trkpt>
      <trkpt lat="43.251063082" lon="-4.024831979"></trkpt>
      <trkpt lat="43.251585362" lon="-4.02474497"></trkpt>
      <trkpt lat="43.251773976" lon="-4.024665148"></trkpt>
      <trkpt lat="43.251792757" lon="-4.024656112"></trkpt>
      <trkpt lat="43.252090458" lon="-4.024503893"></trkpt>
      <trkpt lat="43.252101047" lon="-4.024496795"></trkpt>
      <trkpt lat="43.252108716" lon="-4.024489789"></trkpt>
      <trkpt lat="43.252254369" lon="-4.024334014"></trkpt>
      <trkpt lat="43.252267817" lon="-4.024321894"></trkpt>
      <trkpt lat="43.252416888" lon="-4.024172395"></trkpt>
      <trkpt lat="43.252424884" lon="-4.024162933"></trkpt>
      <trkpt lat="43.252544653" lon="-4.024051857"></trkpt>
      <trkpt lat="43.252551419" lon="-4.024045382"></trkpt>
      <trkpt lat="43.252693012" lon="-4.023916463"></trkpt>
      <trkpt lat="43.252770296" lon="-4.023812225"></trkpt>
      <trkpt lat="43.252737454" lon="-4.023471993"></trkpt>
      <trkpt lat="43.252475571" lon="-4.02288723"></trkpt>
      <trkpt lat="43.252440718" lon="-4.022834566"></trkpt>
      <trkpt lat="43.252166875" lon="-4.022250378"></trkpt>
      <trkpt lat="43.251868918" lon="-4.021362227"></trkpt>
      <trkpt lat="43.251431361" lon="-4.020874266"></trkpt>
      <trkpt lat="43.251371512" lon="-4.020795306"></trkpt>
      <trkpt lat="43.250918068" lon="-4.019991842"></trkpt>
      <trkpt lat="43.250496942" lon="-4.019381782"></trkpt>
      <trkpt lat="43.250468233" lon="-4.019259343"></trkpt>
      <trkpt lat="43.249784497" lon="-4.018501955"></trkpt>
      <trkpt lat="43.249742388" lon="-4.018440185"></trkpt>
      <trkpt lat="43.248959606" lon="-4.017978753"></trkpt>
      <trkpt lat="43.248917914" lon="-4.017951339"></trkpt>
      <trkpt lat="43.248010361" lon="-4.017475013"></trkpt>
      <trkpt lat="43.247981324" lon="-4.017460054"></trkpt>
      <trkpt lat="43.24732253" lon="-4.017461797"></trkpt>
      <trkpt lat="43.247206658" lon="-4.017425269"></trkpt>
      <trkpt lat="43.246527301" lon="-4.016707606"></trkpt>
      <trkpt lat="43.246490077" lon="-4.016645473"></trkpt>
      <trkpt lat="43.245537422" lon="-4.016013889"></trkpt>
      <trkpt lat="43.245430887" lon="-4.015922561"></trkpt>
      <trkpt lat="43.244416063" lon="-4.015515867"></trkpt>
      <trkpt lat="43.244326794" lon="-4.015451029"></trkpt>
      <trkpt lat="43.244307202" lon="-4.015428356"></trkpt>
      <trkpt lat="43.243464054" lon="-4.014902374"></trkpt>
      <trkpt lat="43.243334593" lon="-4.014391694"></trkpt>
      <trkpt lat="43.24370672" lon="-4.013939909"></trkpt>
      <trkpt lat="43.244276061" lon="-4.014134784"></trkpt>
      <trkpt lat="43.244910852" lon="-4.014116482"></trkpt>
      <trkpt lat="43.245357265" lon="-4.013737078"></trkpt>
      <trkpt lat="43.245507686" lon="-4.013691922"></trkpt>
      <trkpt lat="43.245530291" lon="-4.013684789"></trkpt>
      <trkpt lat="43.245934215" lon="-4.013719834"></trkpt>
      <trkpt lat="43.245984258" lon="-4.013736327"></trkpt>
      <trkpt lat="43.246278943" lon="-4.013857383"></trkpt>
      <trkpt lat="43.246303037" lon="-4.013867353"></trkpt>
      <trkpt lat="43.246652759" lon="-4.013930721"></trkpt>
      <trkpt lat="43.246725283" lon="-4.013928145"></trkpt>
      <trkpt lat="43.247196436" lon="-4.013943808"></trkpt>
      <trkpt lat="43.248009904" lon="-4.013820582"></trkpt>
      <trkpt lat="43.248591728" lon="-4.013917319"></trkpt>
      <trkpt lat="43.248636941" lon="-4.01393085"></trkpt>
      <trkpt lat="43.249013956" lon="-4.014056642"></trkpt>
      <trkpt lat="43.249070327" lon="-4.014083757"></trkpt>
      <trkpt lat="43.249519262" lon="-4.014067873"></trkpt>
      <trkpt lat="43.249553424" lon="-4.01406455"></trkpt>
      <trkpt lat="43.249952935" lon="-4.013869001"></trkpt>
      <trkpt lat="43.249982228" lon="-4.013838042"></trkpt>
      <trkpt lat="43.249992091" lon="-4.013828045"></trkpt>
      <trkpt lat="43.250407887" lon="-4.013765964"></trkpt>
      <trkpt lat="43.250432604" lon="-4.013765091"></trkpt>
      <trkpt lat="43.25089083" lon="-4.013599194"></trkpt>
      <trkpt lat="43.250931536" lon="-4.013890107"></trkpt>
      <trkpt lat="43.250860048" lon="-4.014272264"></trkpt>
      <trkpt lat="43.250856822" lon="-4.014288945"></trkpt>
      <trkpt lat="43.250790638" lon="-4.014828687"></trkpt>
      <trkpt lat="43.250784442" lon="-4.014859237"></trkpt>
      <trkpt lat="43.250715714" lon="-4.015198412"></trkpt>
      <trkpt lat="43.250714188" lon="-4.015225528"></trkpt>
      <trkpt lat="43.250681301" lon="-4.015477455"></trkpt>
      <trkpt lat="43.250995446" lon="-4.015736027"></trkpt>
      <trkpt lat="43.251125781" lon="-4.015819745"></trkpt>
      <trkpt lat="43.251198797" lon="-4.015856443"></trkpt>
      <trkpt lat="43.251725569" lon="-4.016198733"></trkpt>
      <trkpt lat="43.251764115" lon="-4.016223387"></trkpt>
      <trkpt lat="43.251780604" lon="-4.016236562"></trkpt>
      <trkpt lat="43.252327263" lon="-4.016529499"></trkpt>
      <trkpt lat="43.252379119" lon="-4.016556651"></trkpt>
      <trkpt lat="43.252641973" lon="-4.016792176"></trkpt>
      <trkpt lat="43.252690444" lon="-4.016825154"></trkpt>
      <trkpt lat="43.252936842" lon="-4.016834738"></trkpt>
      <trkpt lat="43.252958731" lon="-4.016827307"></trkpt>
      <trkpt lat="43.252986456" lon="-4.016820198"></trkpt>
      <trkpt lat="43.253302639" lon="-4.016633009"></trkpt>
      <trkpt lat="43.253536603" lon="-4.016756418"></trkpt>
      <trkpt lat="43.253556696" lon="-4.016781319"></trkpt>
      <trkpt lat="43.253946315" lon="-4.016786588"></trkpt>
      <trkpt lat="43.254342795" lon="-4.016772392"></trkpt>
      <trkpt lat="43.254391262" lon="-4.016774242"></trkpt>
      <trkpt lat="43.254861939" lon="-4.016855828"></trkpt>
      <trkpt lat="43.254873136" lon="-4.016859145"></trkpt>
      <trkpt lat="43.255332647" lon="-4.0170205"></trkpt>
      <trkpt lat="43.255355523" lon="-4.017035809"></trkpt>
      <trkpt lat="43.255609397" lon="-4.017335382"></trkpt>
      <trkpt lat="43.25586128" lon="-4.017811883"></trkpt>
      <trkpt lat="43.256127322" lon="-4.018347556"></trkpt>
      <trkpt lat="43.256133697" lon="-4.018355848"></trkpt>
      <trkpt lat="43.256547344" lon="-4.018623075"></trkpt>
      <trkpt lat="43.256579496" lon="-4.018651068"></trkpt>
      <trkpt lat="43.25686132" lon="-4.01889502"></trkpt>
      <trkpt lat="43.256901623" lon="-4.018948511"></trkpt>
      <trkpt lat="43.256910669" lon="-4.018957279"></trkpt>
      <trkpt lat="43.257071084" lon="-4.019316989"></trkpt>
      <trkpt lat="43.257084637" lon="-4.019337852"></trkpt>
      <trkpt lat="43.257215705" lon="-4.019539138"></trkpt>
      <trkpt lat="43.257245582" lon="-4.019568444"></trkpt>
      <trkpt lat="43.257510894" lon="-4.019732768"></trkpt>
      <trkpt lat="43.257565087" lon="-4.019744723"></trkpt>
      <trkpt lat="43.257597401" lon="-4.019746086"></trkpt>
      <trkpt lat="43.257925413" lon="-4.019766907"></trkpt>
      <trkpt lat="43.257948112" lon="-4.01976604"></trkpt>
      <trkpt lat="43.257968302" lon="-4.019767313"></trkpt>
      <trkpt lat="43.257999878" lon="-4.01976975"></trkpt>
      <trkpt lat="43.258011384" lon="-4.019771569"></trkpt>
      <trkpt lat="43.258296276" lon="-4.019800176"></trkpt>
      <trkpt lat="43.258316527" lon="-4.019809674"></trkpt>
      <trkpt lat="43.258330762" lon="-4.019811489"></trkpt>
      <trkpt lat="43.258486949" lon="-4.019707635"></trkpt>
      <trkpt lat="43.258501006" lon="-4.019694106"></trkpt>
      <trkpt lat="43.25852345" lon="-4.019663385"></trkpt>
      <trkpt lat="43.258704902" lon="-4.019282279"></trkpt>
      <trkpt lat="43.258720122" lon="-4.019261899"></trkpt>
      <trkpt lat="43.258832719" lon="-4.018901083"></trkpt>
      <trkpt lat="43.259034552" lon="-4.018583671"></trkpt>
      <trkpt lat="43.259163891" lon="-4.018595146"></trkpt>
      <trkpt lat="43.259169356" lon="-4.018600491"></trkpt>
      <trkpt lat="43.259333401" lon="-4.018486506"></trkpt>
      <trkpt lat="43.259353163" lon="-4.018456997"></trkpt>
      <trkpt lat="43.259356405" lon="-4.018452857"></trkpt>
      <trkpt lat="43.259522659" lon="-4.018138509"></trkpt>
      <trkpt lat="43.259540714" lon="-4.018106673"></trkpt>
      <trkpt lat="43.259555251" lon="-4.018080552"></trkpt>
      <trkpt lat="43.259823106" lon="-4.017801485"></trkpt>
      <trkpt lat="43.259840062" lon="-4.017788715"></trkpt>
      <trkpt lat="43.260026208" lon="-4.017772852"></trkpt>
      <trkpt lat="43.260289913" lon="-4.017801642"></trkpt>
      <trkpt lat="43.260308902" lon="-4.017818016"></trkpt>
      <trkpt lat="43.260487684" lon="-4.017853453"></trkpt>
      <trkpt lat="43.260525395" lon="-4.017853967"></trkpt>
      <trkpt lat="43.260758055" lon="-4.017799024"></trkpt>
      <trkpt lat="43.260762205" lon="-4.017794078"></trkpt>
      <trkpt lat="43.260930128" lon="-4.017427907"></trkpt>
      <trkpt lat="43.260991904" lon="-4.01715892"></trkpt>
      <trkpt lat="43.261026824" lon="-4.016822559"></trkpt>
      <trkpt lat="43.260971222" lon="-4.016575656"></trkpt>
      <trkpt lat="43.260840512" lon="-4.016447288"></trkpt>
      <trkpt lat="43.260567109" lon="-4.016298974"></trkpt>
      <trkpt lat="43.260542024" lon="-4.016276075"></trkpt>
      <trkpt lat="43.26027233" lon="-4.016098274"></trkpt>
      <trkpt lat="43.260262356" lon="-4.01609183"></trkpt>
      <trkpt lat="43.260010843" lon="-4.016101952"></trkpt>
      <trkpt lat="43.259999361" lon="-4.016104002"></trkpt>
      <trkpt lat="43.259595487" lon="-4.016209353"></trkpt>
      <trkpt lat="43.259241349" lon="-4.016639722"></trkpt>
      <trkpt lat="43.259063484" lon="-4.017060757"></trkpt>
      <trkpt lat="43.259055988" lon="-4.01707982"></trkpt>
      <trkpt lat="43.25880203" lon="-4.017263065"></trkpt>
      <trkpt lat="43.258595009" lon="-4.017385797"></trkpt>
      <trkpt lat="43.258579327" lon="-4.017391892"></trkpt>
      <trkpt lat="43.258389892" lon="-4.017347904"></trkpt>
      <trkpt lat="43.258369046" lon="-4.016956909"></trkpt>
      <trkpt lat="43.258384578" lon="-4.016503912"></trkpt>
      <trkpt lat="43.258380581" lon="-4.01590516"></trkpt>
      <trkpt lat="43.258370421" lon="-4.015284849"></trkpt>
      <trkpt lat="43.258367565" lon="-4.015264534"></trkpt>
      <trkpt lat="43.258276173" lon="-4.014922081"></trkpt>
      <trkpt lat="43.258264838" lon="-4.014885872"></trkpt>
      <trkpt lat="43.258156815" lon="-4.01441153"></trkpt>
      <trkpt lat="43.25805239" lon="-4.013984959"></trkpt>
      <trkpt lat="43.257956047" lon="-4.013677598"></trkpt>
      <trkpt lat="43.257946248" lon="-4.013650566"></trkpt>
      <trkpt lat="43.257869438" lon="-4.013378529"></trkpt>
      <trkpt lat="43.257782349" lon="-4.012935771"></trkpt>
      <trkpt lat="43.257705651" lon="-4.012565257"></trkpt>
      <trkpt lat="43.257486963" lon="-4.012222771"></trkpt>
      <trkpt lat="43.25736333" lon="-4.012017886"></trkpt>
      <trkpt lat="43.257234573" lon="-4.011822803"></trkpt>
      <trkpt lat="43.25714996820606" lon="-4.01170098081725"></trkpt>
      <trkpt lat="43.25703903039374" lon="-4.011524985656485"></trkpt>
      <trkpt lat="43.25692119764679" lon="-4.011312545357133"></trkpt>
      <trkpt lat="43.25676411976743" lon="-4.011274465875845"></trkpt>
      <trkpt lat="43.25654992285236" lon="-4.01129108561432"></trkpt>
      <trkpt lat="43.25654422973901" lon="-4.011289737821812"></trkpt>
      <trkpt lat="43.25633540093666" lon="-4.011164401067807"></trkpt>
      <trkpt lat="43.25592153208864" lon="-4.010825511062919"></trkpt>
      <trkpt lat="43.25544975756281" lon="-4.010606812310421"></trkpt>
      <trkpt lat="43.25509690417822" lon="-4.010408692610675"></trkpt>
      <trkpt lat="43.25475967211821" lon="-4.010099617121583"></trkpt>
      <trkpt lat="43.2547537640836" lon="-4.010085861497923"></trkpt>
      <trkpt lat="43.25447173241444" lon="-4.0096193066338"></trkpt>
      <trkpt lat="43.25446967906013" lon="-4.009607688696778"></trkpt>
      <trkpt lat="43.25417151658583" lon="-4.009227899216084"></trkpt>
      <trkpt lat="43.25416088036801" lon="-4.009223022566949"></trkpt>
      <trkpt lat="43.25384082411951" lon="-4.008929083527501"></trkpt>
      <trkpt lat="43.25381429933088" lon="-4.008905617788418"></trkpt>
      <trkpt lat="43.25351494533869" lon="-4.008595684552093"></trkpt>
      <trkpt lat="43.25334475986757" lon="-4.008005032738434"></trkpt>
      <trkpt lat="43.25322876986377" lon="-4.007762541922268"></trkpt>
      <trkpt lat="43.25315147452812" lon="-4.007641988511603"></trkpt>
      <trkpt lat="43.25325818704406" lon="-4.007575201121395"></trkpt>
      <trkpt lat="43.25325719745977" lon="-4.007486955475264"></trkpt>
      <trkpt lat="43.253223534" lon="-4.007298673"></trkpt>
      <trkpt lat="43.253217847" lon="-4.007241386"></trkpt>
      <trkpt lat="43.253136823" lon="-4.006557462"></trkpt>
      <trkpt lat="43.253010614" lon="-4.005994474"></trkpt>
      <trkpt lat="43.252742617" lon="-4.005122388"></trkpt>
      <trkpt lat="43.252694823" lon="-4.004877576"></trkpt>
      <trkpt lat="43.252585266" lon="-4.004355629"></trkpt>
      <trkpt lat="43.252509665" lon="-4.003967816"></trkpt>
      <trkpt lat="43.252488799" lon="-4.003943764"></trkpt>
      <trkpt lat="43.252343803" lon="-4.003527352"></trkpt>
      <trkpt lat="43.252330938" lon="-4.003504385"></trkpt>
      <trkpt lat="43.251997589" lon="-4.003146073"></trkpt>
      <trkpt lat="43.251983463" lon="-4.00312218"></trkpt>
      <trkpt lat="43.25133373" lon="-4.002761327"></trkpt>
      <trkpt lat="43.250778403" lon="-4.002462273"></trkpt>
      <trkpt lat="43.250519034" lon="-4.002383283"></trkpt>
      <trkpt lat="43.250244888" lon="-4.002324172"></trkpt>
      <trkpt lat="43.250096091" lon="-4.00207185"></trkpt>
      <trkpt lat="43.25006402" lon="-4.002014174"></trkpt>
      <trkpt lat="43.249802571" lon="-4.001500584"></trkpt>
      <trkpt lat="43.249805796" lon="-4.001438891"></trkpt>
      <trkpt lat="43.249824846" lon="-4.000681632"></trkpt>
      <trkpt lat="43.249788948" lon="-4.000032518"></trkpt>
      <trkpt lat="43.249735809" lon="-3.999678553"></trkpt>
      <trkpt lat="43.249724233" lon="-3.999614675"></trkpt>
      <trkpt lat="43.249676885" lon="-3.999043021"></trkpt>
      <trkpt lat="43.249668755" lon="-3.998989018"></trkpt>
      <trkpt lat="43.249582593" lon="-3.998559709"></trkpt>
      <trkpt lat="43.24959921" lon="-3.99841645"></trkpt>
      <trkpt lat="43.249615389" lon="-3.998059231"></trkpt>
      <trkpt lat="43.249615322" lon="-3.998016357"></trkpt>
      <trkpt lat="43.249624165" lon="-3.997958132"></trkpt>
      <trkpt lat="43.249556232" lon="-3.997573866"></trkpt>
      <trkpt lat="43.24949224" lon="-3.996587593"></trkpt>
      <trkpt lat="43.249357098" lon="-3.995451927"></trkpt>
      <trkpt lat="43.249313121" lon="-3.994929905"></trkpt>
      <trkpt lat="43.249300462" lon="-3.994896909"></trkpt>
      <trkpt lat="43.249286054" lon="-3.9948328"></trkpt>
      <trkpt lat="43.249282466" lon="-3.994816735"></trkpt>
      <trkpt lat="43.249169244" lon="-3.99417211"></trkpt>
      <trkpt lat="43.24916533" lon="-3.994086355"></trkpt>
      <trkpt lat="43.249119986" lon="-3.993208362"></trkpt>
      <trkpt lat="43.249125775" lon="-3.993169381"></trkpt>
      <trkpt lat="43.249130535" lon="-3.993138188"></trkpt>
      <trkpt lat="43.249278242" lon="-3.992766398"></trkpt>
      <trkpt lat="43.249279535" lon="-3.992758652"></trkpt>
      <trkpt lat="43.24943691" lon="-3.992450585"></trkpt>
      <trkpt lat="43.249634707" lon="-3.992025177"></trkpt>
      <trkpt lat="43.249655177" lon="-3.992000193"></trkpt>
      <trkpt lat="43.249620023" lon="-3.991923552"></trkpt>
      <trkpt lat="43.249584771" lon="-3.991602848"></trkpt>
      <trkpt lat="43.249718198" lon="-3.991574484"></trkpt>
      <trkpt lat="43.249728619" lon="-3.991562069"></trkpt>
      <trkpt lat="43.250086767" lon="-3.991461016999999"></trkpt>
      <trkpt lat="43.25011056" lon="-3.991454329"></trkpt>
      <trkpt lat="43.250261467" lon="-3.991392373"></trkpt>
      <trkpt lat="43.250276612" lon="-3.991383327"></trkpt>
      <trkpt lat="43.250539895" lon="-3.991267925999999"></trkpt>
      <trkpt lat="43.2505714" lon="-3.991256895"></trkpt>
      <trkpt lat="43.250716356" lon="-3.991203377"></trkpt>
      <trkpt lat="43.25073546" lon="-3.991186763"></trkpt>
      <trkpt lat="43.250822881" lon="-3.990957764"></trkpt>
      <trkpt lat="43.250830901" lon="-3.990920717"></trkpt>
      <trkpt lat="43.250834252" lon="-3.990905862"></trkpt>
      <trkpt lat="43.251001683" lon="-3.990671137000001"></trkpt>
      <trkpt lat="43.251026679" lon="-3.990632377999999"></trkpt>
      <trkpt lat="43.251209354" lon="-3.990310148"></trkpt>
      <trkpt lat="43.251237165" lon="-3.990271619"></trkpt>
      <trkpt lat="43.251245734" lon="-3.990249158"></trkpt>
      <trkpt lat="43.251417806" lon="-3.989986605"></trkpt>
      <trkpt lat="43.251435023" lon="-3.989942061"></trkpt>
      <trkpt lat="43.251643979" lon="-3.989611161"></trkpt>
      <trkpt lat="43.251656417" lon="-3.98959227"></trkpt>
      <trkpt lat="43.251611246" lon="-3.989292385"></trkpt>
      <trkpt lat="43.251418445" lon="-3.98910225"></trkpt>
      <trkpt lat="43.2512489" lon="-3.988989375"></trkpt>
      <trkpt lat="43.251141708" lon="-3.988823219"></trkpt>
      <trkpt lat="43.251132805" lon="-3.98880785"></trkpt>
      <trkpt lat="43.251030989" lon="-3.988730871"></trkpt>
      <trkpt lat="43.250866094" lon="-3.988690351999999"></trkpt>
      <trkpt lat="43.250848547" lon="-3.988678697"></trkpt>
      <trkpt lat="43.250615973" lon="-3.988649739"></trkpt>
      <trkpt lat="43.250500374" lon="-3.988496692"></trkpt>
      <trkpt lat="43.250321479" lon="-3.988068014"></trkpt>
      <trkpt lat="43.250337062" lon="-3.987741526"></trkpt>
      <trkpt lat="43.250342097" lon="-3.987189628"></trkpt>
      <trkpt lat="43.250232332" lon="-3.986957377"></trkpt>
      <trkpt lat="43.250092562" lon="-3.98671996"></trkpt>
      <trkpt lat="43.250163" lon="-3.986534753"></trkpt>
      <trkpt lat="43.250223667" lon="-3.98620428"></trkpt>
      <trkpt lat="43.250229666" lon="-3.986178439"></trkpt>
      <trkpt lat="43.250229644" lon="-3.985783189"></trkpt>
      <trkpt lat="43.25022073" lon="-3.985752276"></trkpt>
      <trkpt lat="43.250199934" lon="-3.985329224"></trkpt>
      <trkpt lat="43.250201218" lon="-3.984695234"></trkpt>
      <trkpt lat="43.250067023" lon="-3.984195338"></trkpt>
      <trkpt lat="43.249987592" lon="-3.983519321"></trkpt>
      <trkpt lat="43.250037489" lon="-3.983186508"></trkpt>
      <trkpt lat="43.250006118" lon="-3.982707594"></trkpt>
      <trkpt lat="43.250408332" lon="-3.982454403"></trkpt>
      <trkpt lat="43.250670081" lon="-3.982506026"></trkpt>
      <trkpt lat="43.250702639" lon="-3.982500804"></trkpt>
      <trkpt lat="43.250974409" lon="-3.982487506"></trkpt>
      <trkpt lat="43.251016359" lon="-3.982484603"></trkpt>
      <trkpt lat="43.251313003" lon="-3.982453287"></trkpt>
      <trkpt lat="43.251339004" lon="-3.982444076"></trkpt>
      <trkpt lat="43.251618704" lon="-3.982199467"></trkpt>
      <trkpt lat="43.25164154" lon="-3.982161156"></trkpt>
      <trkpt lat="43.251659151" lon="-3.982140547"></trkpt>
      <trkpt lat="43.251959473" lon="-3.981937437"></trkpt>
      <trkpt lat="43.252512299" lon="-3.981424188"></trkpt>
      <trkpt lat="43.252879451" lon="-3.981200416"></trkpt>
      <trkpt lat="43.252921803" lon="-3.981193351"></trkpt>
      <trkpt lat="43.253232681" lon="-3.981252812"></trkpt>
      <trkpt lat="43.253653483" lon="-3.981387509999999"></trkpt>
      <trkpt lat="43.253669106" lon="-3.981391584"></trkpt>
      <trkpt lat="43.254060621" lon="-3.981380438"></trkpt>
      <trkpt lat="43.254092773" lon="-3.981371263000001"></trkpt>
      <trkpt lat="43.254459967" lon="-3.98128108"></trkpt>
      <trkpt lat="43.254477855" lon="-3.981279758"></trkpt>
      <trkpt lat="43.254895323" lon="-3.981079553"></trkpt>
      <trkpt lat="43.254930494" lon="-3.981048366"></trkpt>
      <trkpt lat="43.254966892" lon="-3.98103287"></trkpt>
      <trkpt lat="43.255393583" lon="-3.980783151"></trkpt>
      <trkpt lat="43.255427075" lon="-3.980762295"></trkpt>
      <trkpt lat="43.255451857" lon="-3.980749292"></trkpt>
      <trkpt lat="43.255750571" lon="-3.980560242"></trkpt>
      <trkpt lat="43.255780898" lon="-3.980560531"></trkpt>
      <trkpt lat="43.255796547" lon="-3.980555113"></trkpt>
      <trkpt lat="43.255984237" lon="-3.980547424"></trkpt>
      <trkpt lat="43.255995383" lon="-3.98054574"></trkpt>
      <trkpt lat="43.256254931" lon="-3.980505468"></trkpt>
      <trkpt lat="43.256621341" lon="-3.980321687"></trkpt>
      <trkpt lat="43.256642136" lon="-3.980301036"></trkpt>
      <trkpt lat="43.256861639" lon="-3.979945429999999"></trkpt>
      <trkpt lat="43.256867703" lon="-3.979930377"></trkpt>
      <trkpt lat="43.257124645" lon="-3.979668914"></trkpt>
      <trkpt lat="43.257131201" lon="-3.979671469"></trkpt>
      <trkpt lat="43.257289883" lon="-3.979821348000001"></trkpt>
      <trkpt lat="43.257313302" lon="-3.979839839"></trkpt>
      <trkpt lat="43.257480303" lon="-3.979682108"></trkpt>
      <trkpt lat="43.257486687" lon="-3.979667537"></trkpt>
      <trkpt lat="43.257535698" lon="-3.979452003"></trkpt>
      <trkpt lat="43.257512884" lon="-3.978977716"></trkpt>
      <trkpt lat="43.257384809" lon="-3.978463824"></trkpt>
      <trkpt lat="43.257349503" lon="-3.978076826"></trkpt>
      <trkpt lat="43.25740177" lon="-3.977929119"></trkpt>
      <trkpt lat="43.257315658" lon="-3.97781769"></trkpt>
      <trkpt lat="43.257296912" lon="-3.977816226"></trkpt>
      <trkpt lat="43.256976476" lon="-3.97761192"></trkpt>
      <trkpt lat="43.256962683" lon="-3.977595594"></trkpt>
      <trkpt lat="43.25674905" lon="-3.977220577"></trkpt>
      <trkpt lat="43.256739935" lon="-3.977190241999999"></trkpt>
      <trkpt lat="43.256760563" lon="-3.976930160000001"></trkpt>
      <trkpt lat="43.256808225" lon="-3.976662027"></trkpt>
      <trkpt lat="43.256775735" lon="-3.976330857"></trkpt>
      <trkpt lat="43.256520792" lon="-3.976474191"></trkpt>
      <trkpt lat="43.256332089" lon="-3.976819899"></trkpt>
      <trkpt lat="43.256303455" lon="-3.976880154"></trkpt>
      <trkpt lat="43.256289198" lon="-3.976910156"></trkpt>
      <trkpt lat="43.256025318" lon="-3.977083511"></trkpt>
      <trkpt lat="43.255984734" lon="-3.977101947"></trkpt>
      <trkpt lat="43.25567798" lon="-3.977172123"></trkpt>
      <trkpt lat="43.25577209" lon="-3.976824723"></trkpt>
      <trkpt lat="43.255785102" lon="-3.976762261"></trkpt>
      <trkpt lat="43.255855054" lon="-3.976363883"></trkpt>
      <trkpt lat="43.255899672" lon="-3.975921504"></trkpt>
      <trkpt lat="43.25581429" lon="-3.975449841000001"></trkpt>
      <trkpt lat="43.255902675" lon="-3.974990172"></trkpt>
      <trkpt lat="43.255955029" lon="-3.974239049"></trkpt>
      <trkpt lat="43.255467482" lon="-3.973922687"></trkpt>
      <trkpt lat="43.255430363" lon="-3.973904082999999"></trkpt>
      <trkpt lat="43.254811655" lon="-3.973800901"></trkpt>
      <trkpt lat="43.254749302" lon="-3.973788911"></trkpt>
      <trkpt lat="43.254426428" lon="-3.973812978"></trkpt>
      <trkpt lat="43.253882403" lon="-3.973920325"></trkpt>
      <trkpt lat="43.253851341" lon="-3.97391645"></trkpt>
      <trkpt lat="43.253820244" lon="-3.973913334"></trkpt>
      <trkpt lat="43.253378411" lon="-3.973886064"></trkpt>
      <trkpt lat="43.252605292" lon="-3.97372258"></trkpt>
      <trkpt lat="43.25237975027986" lon="-3.973611863260627"></trkpt>
      <trkpt lat="43.25225074832294" lon="-3.973522108598644"></trkpt>
      <trkpt lat="43.25274230360774" lon="-3.972745058770222"></trkpt>
      <trkpt lat="43.25276077238278" lon="-3.972696478790323"></trkpt>
      <trkpt lat="43.25328104913701" lon="-3.97181334013246"></trkpt>
      <trkpt lat="43.25332590963152" lon="-3.971759380785539"></trkpt>
      <trkpt lat="43.25388755840049" lon="-3.971050812764132"></trkpt>
      <trkpt lat="43.25432752443051" lon="-3.970619684267379"></trkpt>
      <trkpt lat="43.25437586826757" lon="-3.970584487763338"></trkpt>
      <trkpt lat="43.25514060580412" lon="-3.969814759996103"></trkpt>
      <trkpt lat="43.25517153923472" lon="-3.969775479366044"></trkpt>
      <trkpt lat="43.25579133021122" lon="-3.969121325445353"></trkpt>
      <trkpt lat="43.25580483581252" lon="-3.969107584944446"></trkpt>
      <trkpt lat="43.25637734784316" lon="-3.968488600092142"></trkpt>
      <trkpt lat="43.25685516408145" lon="-3.968297696564406"></trkpt>
      <trkpt lat="43.25740343478883" lon="-3.967701083789132"></trkpt>
      <trkpt lat="43.25698350714465" lon="-3.96818728236768"></trkpt>
      <trkpt lat="43.25658415151523" lon="-3.968373437977537"></trkpt>
      <trkpt lat="43.25619391319147" lon="-3.968669253085766"></trkpt>
      <trkpt lat="43.25541799349147" lon="-3.969509139491399"></trkpt>
      <trkpt lat="43.2549434163629" lon="-3.969974983186668"></trkpt>
      <trkpt lat="43.25402467906441" lon="-3.970926648224872"></trkpt>
      <trkpt lat="43.25315249801228" lon="-3.971983531253336"></trkpt>
      <trkpt lat="43.25219350327758" lon="-3.973504775722359"></trkpt>
      <trkpt lat="43.251816625" lon="-3.973949009"></trkpt>
      <trkpt lat="43.251611423" lon="-3.974331856"></trkpt>
      <trkpt lat="43.251281254" lon="-3.974923339"></trkpt>
      <trkpt lat="43.251094359" lon="-3.975457200000001"></trkpt>
      <trkpt lat="43.250803788" lon="-3.975943827"></trkpt>
      <trkpt lat="43.250771268" lon="-3.975978244"></trkpt>
      <trkpt lat="43.250497466" lon="-3.976532832"></trkpt>
      <trkpt lat="43.250157314" lon="-3.977298341"></trkpt>
      <trkpt lat="43.249964567" lon="-3.978226747"></trkpt>
      <trkpt lat="43.249966466" lon="-3.978257517"></trkpt>
      <trkpt lat="43.249924689" lon="-3.978833003"></trkpt>
      <trkpt lat="43.249923057" lon="-3.978876513"></trkpt>
      <trkpt lat="43.249887558" lon="-3.979293714"></trkpt>
      <trkpt lat="43.249730983" lon="-3.979970421"></trkpt>
      <trkpt lat="43.249596752" lon="-3.980554694"></trkpt>
      <trkpt lat="43.24941365" lon="-3.980936401000001"></trkpt>
      <trkpt lat="43.24919079" lon="-3.981296582"></trkpt>
      <trkpt lat="43.248918214" lon="-3.982115023"></trkpt>
      <trkpt lat="43.248711281" lon="-3.982745634"></trkpt>
      <trkpt lat="43.248539945" lon="-3.98342321"></trkpt>
      <trkpt lat="43.248511424" lon="-3.983540883"></trkpt>
      <trkpt lat="43.248325637" lon="-3.984011776"></trkpt>
      <trkpt lat="43.248163799" lon="-3.984676568999999"></trkpt>
      <trkpt lat="43.248087877" lon="-3.985229726"></trkpt>
      <trkpt lat="43.247820247" lon="-3.985754657000001"></trkpt>
      <trkpt lat="43.247465778" lon="-3.986527458"></trkpt>
      <trkpt lat="43.24705434" lon="-3.987454125999999"></trkpt>
      <trkpt lat="43.2470354" lon="-3.987494852"></trkpt>
      <trkpt lat="43.246764419" lon="-3.988281075999999"></trkpt>
      <trkpt lat="43.246363934" lon="-3.989143092"></trkpt>
      <trkpt lat="43.246140176" lon="-3.989664936"></trkpt>
      <trkpt lat="43.246125288" lon="-3.989699289"></trkpt>
      <trkpt lat="43.245961714" lon="-3.990151146"></trkpt>
      <trkpt lat="43.245745799" lon="-3.990762005"></trkpt>
      <trkpt lat="43.24555179" lon="-3.991311819"></trkpt>
      <trkpt lat="43.245411735" lon="-3.991750520000001"></trkpt>
      <trkpt lat="43.24528993" lon="-3.991948264"></trkpt>
      <trkpt lat="43.245088689" lon="-3.992084259"></trkpt>
      <trkpt lat="43.244924919" lon="-3.992229534"></trkpt>
      <trkpt lat="43.244912209" lon="-3.992247383"></trkpt>
      <trkpt lat="43.244807802" lon="-3.992402171"></trkpt>
      <trkpt lat="43.244665552" lon="-3.992661092"></trkpt>
      <trkpt lat="43.244574758" lon="-3.992828046000001"></trkpt>
      <trkpt lat="43.244566391" lon="-3.99284188"></trkpt>
      <trkpt lat="43.244463407" lon="-3.993028184"></trkpt>
      <trkpt lat="43.244375019" lon="-3.993194667"></trkpt>
      <trkpt lat="43.244367382" lon="-3.993206839"></trkpt>
      <trkpt lat="43.244181079" lon="-3.993188245"></trkpt>
      <trkpt lat="43.244031687" lon="-3.99316082"></trkpt>
      <trkpt lat="43.24382751" lon="-3.993082235"></trkpt>
      <trkpt lat="43.243642645" lon="-3.993018016000001"></trkpt>
      <trkpt lat="43.243508888" lon="-3.992965512"></trkpt>
      <trkpt lat="43.243433455" lon="-3.993030076"></trkpt>
      <trkpt lat="43.24331432" lon="-3.99310592"></trkpt>
      <trkpt lat="43.24330771" lon="-3.993105034"></trkpt>
      <trkpt lat="43.243223491" lon="-3.993185189000001"></trkpt>
      <trkpt lat="43.243176368" lon="-3.99337224"></trkpt>
      <trkpt lat="43.243151124" lon="-3.993491336"></trkpt>
      <trkpt lat="43.243062255" lon="-3.993662572999999"></trkpt>
      <trkpt lat="43.242912316" lon="-3.993783378"></trkpt>
      <trkpt lat="43.242903256" lon="-3.993793859"></trkpt>
      <trkpt lat="43.242796924" lon="-3.993944131"></trkpt>
      <trkpt lat="43.242791055" lon="-3.993957436"></trkpt>
      <trkpt lat="43.242626905" lon="-3.993959461"></trkpt>
      <trkpt lat="43.242608539" lon="-3.993950957"></trkpt>
      <trkpt lat="43.242463512" lon="-3.993844904"></trkpt>
      <trkpt lat="43.242451878" lon="-3.993830285"></trkpt>
      <trkpt lat="43.24221195" lon="-3.993655962000001"></trkpt>
      <trkpt lat="43.241984408" lon="-3.993588676"></trkpt>
      <trkpt lat="43.241814736" lon="-3.993730029"></trkpt>
      <trkpt lat="43.241678672" lon="-3.993860017"></trkpt>
      <trkpt lat="43.241609078" lon="-3.993953022"></trkpt>
      <trkpt lat="43.24148523" lon="-3.993903496"></trkpt>
      <trkpt lat="43.241333978" lon="-3.993789910999999"></trkpt>
      <trkpt lat="43.241145468" lon="-3.993619249"></trkpt>
      <trkpt lat="43.24113963" lon="-3.993606039"></trkpt>
      <trkpt lat="43.24093644" lon="-3.993456098"></trkpt>
      <trkpt lat="43.240596679" lon="-3.993309409000001"></trkpt>
      <trkpt lat="43.240393761" lon="-3.993193821"></trkpt>
      <trkpt lat="43.240188179" lon="-3.993097414"></trkpt>
      <trkpt lat="43.240000315" lon="-3.993024765"></trkpt>
      <trkpt lat="43.239710322" lon="-3.992856173"></trkpt>
      <trkpt lat="43.239595123" lon="-3.992826593"></trkpt>
      <trkpt lat="43.239184702" lon="-3.993245746"></trkpt>
      <trkpt lat="43.238740294" lon="-3.993774348000001"></trkpt>
      <trkpt lat="43.238305713" lon="-3.994188221"></trkpt>
      <trkpt lat="43.237656868" lon="-3.994664755"></trkpt>
      <trkpt lat="43.237613556" lon="-3.994720112"></trkpt>
      <trkpt lat="43.237018205" lon="-3.995330049"></trkpt>
      <trkpt lat="43.236987544" lon="-3.995358465"></trkpt>
      <trkpt lat="43.236329374" lon="-3.995859389"></trkpt>
      <trkpt lat="43.236115144" lon="-3.996504428"></trkpt>
      <trkpt lat="43.236231663" lon="-3.996922864"></trkpt>
      <trkpt lat="43.23638037" lon="-3.997527472"></trkpt>
      <trkpt lat="43.236291361" lon="-3.998050988000001"></trkpt>
      <trkpt lat="43.23592969" lon="-3.998843021"></trkpt>
      <trkpt lat="43.235257736" lon="-3.99976027"></trkpt>
      <trkpt lat="43.23435264" lon="-4.000602284"></trkpt>
      <trkpt lat="43.233550202" lon="-4.001204011"></trkpt>
      <trkpt lat="43.232410281" lon="-4.002079239"></trkpt>
      <trkpt lat="43.232378592" lon="-4.002104496"></trkpt>
      <trkpt lat="43.231726983" lon="-4.002697741"></trkpt>
      <trkpt lat="43.230775178" lon="-4.003021884"></trkpt>
      <trkpt lat="43.230632071" lon="-4.003018465"></trkpt>
      <trkpt lat="43.229740981" lon="-4.003079978"></trkpt>
      <trkpt lat="43.228695199" lon="-4.003039741"></trkpt>
      <trkpt lat="43.22761736" lon="-4.002704608"></trkpt>
      <trkpt lat="43.227687122" lon="-4.003383847"></trkpt>
      <trkpt lat="43.227717212" lon="-4.003475175"></trkpt>
      <trkpt lat="43.22783617" lon="-4.003988046"></trkpt>
      <trkpt lat="43.227836293" lon="-4.004028412"></trkpt>
      <trkpt lat="43.228154553" lon="-4.004755742"></trkpt>
      <trkpt lat="43.228239298" lon="-4.004901341"></trkpt>
      <trkpt lat="43.228301497" lon="-4.006058326"></trkpt>
      <trkpt lat="43.228302216" lon="-4.006109716"></trkpt>
      <trkpt lat="43.22831863" lon="-4.00776573"></trkpt>
      <trkpt lat="43.228320673" lon="-4.007832472"></trkpt>
      <trkpt lat="43.228006494" lon="-4.008828492"></trkpt>
      <trkpt lat="43.22753766" lon="-4.009151631"></trkpt>
      <trkpt lat="43.227242265" lon="-4.010088728"></trkpt>
      <trkpt lat="43.22725323" lon="-4.011169027"></trkpt>
      <trkpt lat="43.227489974" lon="-4.012141341"></trkpt>
      <trkpt lat="43.228023746" lon="-4.013423926"></trkpt>
      <trkpt lat="43.22809453" lon="-4.013546734"></trkpt>
      <trkpt lat="43.22864078" lon="-4.014145408"></trkpt>
      <trkpt lat="43.228686962" lon="-4.01419973"></trkpt>
      <trkpt lat="43.229113846" lon="-4.01494593"></trkpt>
      <trkpt lat="43.229317498" lon="-4.015864655"></trkpt>
      <trkpt lat="43.229283081" lon="-4.016653634"></trkpt>
      <trkpt lat="43.228822891" lon="-4.017159941"></trkpt>
      <trkpt lat="43.228382865" lon="-4.017679405"></trkpt>
      <trkpt lat="43.227891457" lon="-4.018124385"></trkpt>
      <trkpt lat="43.227597151" lon="-4.018345191"></trkpt>
      <trkpt lat="43.22691488" lon="-4.019155221"></trkpt>
      <trkpt lat="43.226257456" lon="-4.01967662"></trkpt>
      <trkpt lat="43.225800461" lon="-4.020335807"></trkpt>
      <trkpt lat="43.225775449" lon="-4.020366774"></trkpt>
      <trkpt lat="43.224927483" lon="-4.020978612"></trkpt>
      <trkpt lat="43.224895223" lon="-4.020980184"></trkpt>
      <trkpt lat="43.224315369" lon="-4.021555351"></trkpt>
      <trkpt lat="43.224278945" lon="-4.021622584"></trkpt>
      <trkpt lat="43.223682065" lon="-4.022068574"></trkpt>
      <trkpt lat="43.222869367" lon="-4.022822275"></trkpt>
      <trkpt lat="43.222807367" lon="-4.022875236"></trkpt>
      <trkpt lat="43.221765267" lon="-4.023847679"></trkpt>
      <trkpt lat="43.221329212" lon="-4.024377941"></trkpt>
      <trkpt lat="43.221025066" lon="-4.024661543"></trkpt>
      <trkpt lat="43.22062664" lon="-4.025261807"></trkpt>
      <trkpt lat="43.220603353" lon="-4.02530974"></trkpt>
      <trkpt lat="43.220260485" lon="-4.025855005"></trkpt>
      <trkpt lat="43.22022457" lon="-4.02590241"></trkpt>
      <trkpt lat="43.219792095" lon="-4.026334758"></trkpt>
      <trkpt lat="43.219785823" lon="-4.026346814"></trkpt>
      <trkpt lat="43.219114179" lon="-4.026490147"></trkpt>
      <trkpt lat="43.219014234" lon="-4.026496834"></trkpt>
      <trkpt lat="43.218253368" lon="-4.026400959"></trkpt>
      <trkpt lat="43.217675419" lon="-4.026379017"></trkpt>
      <trkpt lat="43.216607331" lon="-4.026329756"></trkpt>
      <trkpt lat="43.215787627" lon="-4.026597184"></trkpt>
      <trkpt lat="43.214588727" lon="-4.027119697"></trkpt>
      <trkpt lat="43.21352201" lon="-4.027616021"></trkpt>
      <trkpt lat="43.212515845" lon="-4.028127517"></trkpt>
      <trkpt lat="43.212460348" lon="-4.028218457"></trkpt>
      <trkpt lat="43.211443992" lon="-4.028596712"></trkpt>
      <trkpt lat="43.210803903" lon="-4.029344381"></trkpt>
      <trkpt lat="43.210769882" lon="-4.029380631"></trkpt>
      <trkpt lat="43.209904723" lon="-4.029645022"></trkpt>
      <trkpt lat="43.20987419" lon="-4.029660983"></trkpt>
      <trkpt lat="43.208919571" lon="-4.030070403"></trkpt>
      <trkpt lat="43.208612766" lon="-4.030925143"></trkpt>
      <trkpt lat="43.208608201" lon="-4.031021456"></trkpt>
      <trkpt lat="43.2085709" lon="-4.031718319"></trkpt>
      <trkpt lat="43.208577509" lon="-4.03176345"></trkpt>
      <trkpt lat="43.208579969" lon="-4.031877273"></trkpt>
      <trkpt lat="43.208583092" lon="-4.032602792"></trkpt>
      <trkpt lat="43.208705873" lon="-4.033931158"></trkpt>
      <trkpt lat="43.208740814" lon="-4.034566173"></trkpt>
      <trkpt lat="43.208751933" lon="-4.034619545"></trkpt>
      <trkpt lat="43.208767737" lon="-4.035555614"></trkpt>
      <trkpt lat="43.208771225" lon="-4.035609178"></trkpt>
      <trkpt lat="43.208775247" lon="-4.035652066"></trkpt>
      <trkpt lat="43.208768088" lon="-4.036593021"></trkpt>
      <trkpt lat="43.208765714" lon="-4.03676336"></trkpt>
      <trkpt lat="43.20898243" lon="-4.037562682"></trkpt>
      <trkpt lat="43.209001721" lon="-4.037622977"></trkpt>
      <trkpt lat="43.209175618" lon="-4.03860682"></trkpt>
      <trkpt lat="43.209310613" lon="-4.039196975"></trkpt>
      <trkpt lat="43.209331347" lon="-4.039254848"></trkpt>
      <trkpt lat="43.209472548" lon="-4.039834694"></trkpt>
      <trkpt lat="43.209489414" lon="-4.039912645"></trkpt>
      <trkpt lat="43.209531746" lon="-4.040586007"></trkpt>
      <trkpt lat="43.209536767" lon="-4.040647281"></trkpt>
      <trkpt lat="43.209523842" lon="-4.041109288"></trkpt>
      <trkpt lat="43.209522018" lon="-4.041162944"></trkpt>
      <trkpt lat="43.209464689" lon="-4.041548761"></trkpt>
      <trkpt lat="43.209461612" lon="-4.041580424"></trkpt>
      <trkpt lat="43.209368105" lon="-4.042128359"></trkpt>
      <trkpt lat="43.209338108" lon="-4.042482286"></trkpt>
      <trkpt lat="43.20933735" lon="-4.042492198"></trkpt>
      <trkpt lat="43.209275607" lon="-4.042867988"></trkpt>
      <trkpt lat="43.209272053" lon="-4.042885192"></trkpt>
      <trkpt lat="43.209268827" lon="-4.042897952"></trkpt>
      <trkpt lat="43.209209223" lon="-4.043132525"></trkpt>
      <trkpt lat="43.209086244" lon="-4.043410613"></trkpt>
      <trkpt lat="43.209028969" lon="-4.043504334"></trkpt>
      <trkpt lat="43.208912965" lon="-4.043877764"></trkpt>
      <trkpt lat="43.208907878" lon="-4.043894334"></trkpt>
      <trkpt lat="43.208777205" lon="-4.044304422"></trkpt>
      <trkpt lat="43.208500332" lon="-4.044775657"></trkpt>
      <trkpt lat="43.208477606" lon="-4.04481987"></trkpt>
      <trkpt lat="43.20828613" lon="-4.044913472"></trkpt>
      <trkpt lat="43.208040177" lon="-4.045028291"></trkpt>
      <trkpt lat="43.208019667" lon="-4.045034239"></trkpt>
      <trkpt lat="43.2077679" lon="-4.04513805"></trkpt>
      <trkpt lat="43.207740713" lon="-4.045153914"></trkpt>
      <trkpt lat="43.207497683" lon="-4.045240831"></trkpt>
      <trkpt lat="43.207489268" lon="-4.045257637"></trkpt>
      <trkpt lat="43.207201081" lon="-4.045340775"></trkpt>
      <trkpt lat="43.206558666" lon="-4.045594159"></trkpt>
      <trkpt lat="43.206375386" lon="-4.045694005"></trkpt>
      <trkpt lat="43.206364935" lon="-4.045699551"></trkpt>
      <trkpt lat="43.206213397" lon="-4.045870431"></trkpt>
    </trkseg>
  </trk>
</gpx>